Street,HouseNumber,Locality,Region,Province,PostalCode,Country,Latitude,Longitude
Ronda de la Comunicación,5,Madrid,Madrid,Comunidad de Madrid,28050,Spain,40.5178019,-3.6669933
Paseo los Adarves,4,Molina de Aragón,Guadalajara,Castilla-La Mancha,19300,Spain,40.8424907,-1.888657
Carrer Sant Jaume,83,Torreblanca,Castelló,Comunidad Valenciana,12596,Spain,40.2213512,0.1979501
Avenida de Molinaseca,8,Ponferrada,León,Castilla y León,24400,Spain,42.5455513,-6.5820432
Calle Lejalde,27,Fitero,Navarra,Navarra,31593,Spain,42.0557857,-1.8602233
Avenida Marítima,98,El Golfo,Las Palmas,Canarias,35570,Spain,28.9811243,-13.8301473
Calle del Cap. Postigo,6,Villena,Alicante,Comunidad Valenciana,3400,Spain,38.638878,-0.868806
Calle Barbacana Baja,2,Carmona,Sevilla,Andalucía,41410,Spain,37.4715503,-5.6416504
Calle Espolon,22-24,Hortigüela,Burgos,Castilla y León,9640,Spain,42.068652,-3.4252106
Calle Angustias,70,Tabernas,Almería,Andalucía,4200,Spain,37.0497436,-2.3968934
Avinguda del Bisbe Campins,6,Porreres,Illes Balears,Illes Balears,7260,Spain,39.5170373,3.023177
Rúa de Pablo Iglesias,10,Boiro,A Coruña,,15930,Spain,42.64585,-8.8863513
c/ Carrobierzo,28,Jiménez de Jamuz,León,Castilla y León,24767,Spain,42.2713503,-5.933386
Calle San Rafael,3,Venta del Rayo,Granada,Andalucía,18300,Spain,37.1341667,-4.2138889
Rúa Comandante Fontanes,1,A Coruña,A Coruña,,15003,Spain,43.369945,-8.4047338
Calle Aguacebas,22,Coto-Ríos,Jaén,Andalucía,23478,Spain,38.0477075,-2.8486582
Plaça Major,1,Algar de Palància,Valencia,Comunidad Valenciana,46593,Spain,39.7811961,-0.367778
Avenida de la Coronación,10,Bollullos Par del Condado,Huelva,Andalucía,21710,Spain,37.3407509,-6.5390816
Rúa Constitución,18,Cambre,A Coruña,,15679,Spain,43.3189711,-8.3576787
Espoloia Kalea,12,Bergara,Gipuzkoa,Euskadi,20570,Spain,43.113219,-2.4149952
Calle Navegante Juan Patiño,78,Villanueva de la Serena,Badajoz,Extremadura,6700,Spain,38.97225,-5.7916999
Rúa de Celanova,54,Vilar de Santos,Ourense,,32650,Spain,42.0876802,-7.7922819
Calle San Pascual Bailón,2,Catral,Alicante,Comunidad Valenciana,3158,Spain,38.1583762,-0.7982551
Avenida Antonio Quesada,53,Ciudad Quesada,Alicante,Comunidad Valenciana,3170,Spain,38.0494232,-0.7110745
Rúa Corredoira da Torre,13,Santa Comba,A Coruña,,15841,Spain,43.035964,-8.80958
GR-6100,50,Gor,Granada,Andalucía,18870,Spain,37.399333,-2.9925218
Carrer Àngel Guimerà,1,Vilaplana,Tarragona,Catalunya,43380,Spain,41.229225,1.0337452
Carrer les Valls,3,Estivella,Valencia,Comunidad Valenciana,46590,Spain,39.7156343,-0.3482325
Carrer de Santa Teresa,3,Begur,Girona,Catalunya,17255,Spain,41.9550151,3.2064311
Avinguda de Balmes,13,Lleida,Lleida,Catalunya,25006,Spain,41.6176887,0.6197591
Calle Imeldo Serís,25,Santa Cruz de Tenerife,Santa Cruz de Tenerife,Canarias,38003,Spain,28.4658765,-16.2499474
Paseo de la Fábrica,14,Brihuega,Guadalajara,Castilla-La Mancha,19400,Spain,40.7604626,-2.8671563
Avenida Castilla,21,Cheste,Valencia,Comunidad Valenciana,46380,Spain,39.4921074,-0.6838931
Calle Extramuros-San Pedro,7,Ossa de Montiel,Albacete,Castilla-La Mancha,2611,Spain,38.9340535,-2.8370244
Avenida del Acebo,3,Cangas del Narcea,Asturias,,33800,Spain,43.1771712,-6.5488212
Carrer de Mossèn Joan Batalla,3,Cambrils,Tarragona,Catalunya,43850,Spain,41.06556,1.0578688
Diseminado son cardaix,459,Font de Sa Cala,Illes Balears,Illes Balears,7589,Spain,39.6853186,3.4529335
Calle Santa Bárbara,1,Olías del Rey,Toledo,Castilla-La Mancha,45280,Spain,39.9449383,-3.987105
Calle Francisco Bordón Mendez,1,Villaverde,Las Palmas,Canarias,35640,Spain,28.6203686,-13.9102997
Carretera Madrid-Valencia,73,Utiel,Valencia,Comunidad Valenciana,46300,Spain,39.5609485,-1.1935565
Avinguda de les Alegries,9-11,Lloret de Mar,Girona,Catalunya,17310,Spain,41.7044031,2.8343369
Calle de la Herrería,11,Segovia,Segovia,Castilla y León,40001,Spain,40.950083,-4.122491
Gran Vía,7,Madrid,Madrid,Comunidad de Madrid,28013,Spain,40.4193824,-3.6987431
Cumial,2,O Cumial,Ourense,,32915,Spain,42.289586,-7.8397897
Calle del Capataz Santiago Gómez Nogurón,19,Montealegre del Castillo,Albacete,Castilla-La Mancha,2650,Spain,38.785756,-1.3304346
Calle Costanilla,13,Puebla de Sanabria,Zamora,Castilla y León,49300,Spain,42.0528519,-6.6334756
Calle Hoyo,4,Andújar,Jaén,Andalucía,23740,Spain,38.0371875,-4.0528539
Calle Alcázar,2,Mocejón,Toledo,Castilla-La Mancha,45270,Spain,39.9397063,-3.9176365
Calle Medio,13,Alquézar,Huesca,Aragón,22145,Spain,42.1723923,0.0253348
Calle Rey Juan Carlos I,29,Santa María de la Alameda,Madrid,Comunidad de Madrid,28296,Spain,40.5971907,-4.2593597
Calle Rosas,274,Agulo,Santa Cruz de Tenerife,Canarias,38890,Spain,28.1865243,-17.2221801
Avenida 28 de Febrero,1,Albox,Almería,Andalucía,4800,Spain,37.3800278,-2.1354401
Carretera Burgohondo,17,Ávila,Ávila,Castilla y León,5002,Spain,40.6434536,-4.7054802
Calle Progreso,64,Bargas,Toledo,Castilla-La Mancha,45593,Spain,39.9389531,-4.0238882
Plaza Cervantes,13,Badajoz,Badajoz,Extremadura,6001,Spain,38.8776841,-6.9671141
Carretera General Tajuya,2,El Paso,Santa Cruz de Tenerife,Canarias,38750,Spain,28.6337055,-17.8898694
C-59,1,Moià,Barcelona,Cataluña,8180,Spain,41.808913,2.0983357
Carrer Sant Antoni,33,Torreblanca,Castelló,Comunidad Valenciana,12596,Spain,40.2201593,0.1943547
Lugar Barrio Erdigune,1,Maruri,Vizcaya,País Vasco,48112,Spain,43.3805556,-2.8683333
Plaza Pradollano,31,Sierra Nevada,Granada,Andalucía,18196,Spain,37.095631,-3.399802
Calle Inocente Hervás,29,Torralba de Calatrava,Ciudad Real,Castilla-La Mancha,13160,Spain,39.0191038,-3.7516104
Plaza Mayor,7,Chañe,Segovia,Castilla y León,40216,Spain,41.3379745,-4.4291596
Rúa Concepción Arenal,51,Santa Cruz,A Coruña,,15179,Spain,43.3486903,-8.3463299
Calle Urrea,50,Chiva,Valencia,Comunidad Valenciana,46370,Spain,39.4571495,-0.73188
TF-235,131,La Laguna,Santa Cruz de Tenerife,Canarias,38297,Spain,28.4901313,-16.3665752
Rua Trasdeza,14,Silleda,Pontevedra,,36540,Spain,42.6991728,-8.2512074
Carretera de Plasencia,31,Galisteo,Cáceres,Extremadura,10691,Spain,39.9741219,-6.2655841
Avenida de Alcoy,21,Castell de Castells,Alicante,Comunidad Valenciana,3793,Spain,38.7221059,-0.1956999
Avenida Río Cúa,20,Fabero,León,Castilla y León,24420,Spain,42.7679871,-6.6286035
Avenida de Barraña,38,Boiro,A Coruña,,15930,Spain,42.6427653,-8.882651
Calle Matilde Tagle Ortiz,24,Badajoz,Badajoz,Extremadura,6006,Spain,38.8808978,-7.0083141
Avenida Don Antonio Huertas,47,Tomelloso,Ciudad Real,Castilla-La Mancha,13700,Spain,39.148862,-3.021704
Pablo Picasso Kalea,7,Gernika-Lumo,Bizkaia,Euskadi,48300,Spain,43.3140415,-2.6774193
Avinguda de Pau Clarís,4,La Seu d'Urgell,Lleida,Catalunya,25700,Spain,42.3573787,1.4595137
Plaza de la Constitución,2,Montejícar,Granada,Andalucía,18561,Spain,37.5721939,-3.5046262
Avenida de Jaén,32,Valdepeñas de Jaén,Jaén,Jaén,23150,Spain,37.591247,-3.81307
Plaza Castillo de Irulegui Enparantza,9,Mutilva Baja,Navarra,Navarra,31192,Spain,42.7923429,-1.6149388
Avinguda de Catalunya,56,Gironella,Barcelona,Catalunya,8680,Spain,42.0337657,1.8803546
Avenida de Santiago,12,Santa Comba,La Coruña,,15840,Spain,43.0334579,-8.8039045
Carrer del Rector Vives,14,Palma,Illes Balears,Illes Balears,7015,Spain,39.5660727,2.6002683
Autovía del Suroeste,85,Santa Olalla,Toledo,Castilla-La Mancha,45530,Spain,40.0222434,-4.4877901
Calle Orellana,1,Cáceres,Cáceres,Extremadura,10003,Spain,39.4735927,-6.3713366
Avenida de Castuera,4,Campanario,Badajoz,Extremadura,6460,Spain,38.8595308,-5.6242183
Lauaxeta Olerkari Kalea,4,Mungia,Bizkaia,Euskadi,48100,Spain,43.356083,-2.8487787
Calle Alcalde Fernando Tejero,11,Alcaudete,Jaén,Andalucía,23660,Spain,37.5876514,-4.082737
Rúa Fonsillón,59,Ourense,Ourense,,32005,Spain,42.3221092,-7.8730463
Carrer del Professor Beltrán Báguena,2,València,Valencia,Comunidad Valenciana,46009,Spain,39.480233,-0.388519
Calle Virgen Loreto,3,Bejís,Castellón,Comunidad Valenciana,12430,Spain,39.9099551,-0.7076097
Calle Iglesia,24,Jauja,Córdoba,Andalucía,14911,Spain,37.3030123,-4.6564586
Plaza de la Catedral,8,Almería,Almería,Andalucía,4002,Spain,36.8384083,-2.4668314
Calle las Eras,8,Pinos Genil,Granada,Andalucía,18191,Spain,37.1633143,-3.5019241
Partida Torrent,15,La Nucía,Alicante,Comunidad Valenciana,3530,Spain,38.6193417,-0.1332257
Avenida de Emilio Romero,57,Arévalo,Ávila,Castilla y León,5200,Spain,41.054661,-4.7116126
Rúa Valle inclán,2,Ribadumia,Pontevedra,,36636,Spain,42.5023048,-8.7684367
Vilar de Abaixo,9,Santa Comba,A Coruña,,15837,Spain,42.9929314,-8.8675403
Plaza San Roque,9,Cacabelos,León,Castilla y León,24540,Spain,42.599709,-6.72206
Carrer de la Corretgeria,37,València,Valencia,Comunidad Valenciana,46001,Spain,39.4752898,-0.3771125
Carretera Burunchel,3,La Iruela,Jaén,Andalucía,23476,Spain,37.922411,-2.9940108
Plaza de Andalucia,8,Villaviciosa de Córdoba,Córdoba,Andalucía,14300,Spain,38.0759506,-5.0144891
Mendiondo Auzoa,4,Mendiondo,Bizkaia,Euskadi,48610,Spain,43.3679868,-2.9427673
Calle Portugal,48,Espejón,Soria,Castilla y León,42142,Spain,41.829491,-3.2592992
Rúa Cantón San Roque,48,Melide,A Coruña,,15800,Spain,42.9134192,-8.0125172
Calle Mayor,17,Samper del Salz,Zaragoza,Aragón,50134,Spain,41.2339002,-0.8256666
Avenida de Castilla,2,Colmenar de Oreja,Madrid,Comunidad de Madrid,28380,Spain,40.0776823,-3.48686
Av de la Constitución,40,Alaró,Illes Balears,Illes Balears,7340,Spain,39.7037297,2.7926871
Avenida de la Constitución,32,Algodonales,Cádiz,Andalucía,11680,Spain,36.88091,-5.40644
Avenida de Cuba,87,Badolatosa,Sevilla,Andalucía,41570,Spain,37.30762,-4.6743
Paseo Ramón y Cajal,3,Jarque,Zaragoza,Aragón,50258,Spain,41.5558533,-1.6744004
Avenida de la Constitución,22,Algodonales,Cádiz,Andalucía,11680,Spain,36.8809588,-5.4060107
Calle Antonio González Abato,5,Brenes,Sevilla,Andalucía,41310,Spain,37.5540465,-5.8682021
Calle de Botoneras,6,Madrid,Madrid,Comunidad de Madrid,28012,Spain,40.4149117,-3.7068219
Rúa da Cachurra,27,Negreira,A Coruña,,15830,Spain,42.9106027,-8.7370781
Calle Panaderos,32,Granada,Granada,Andalucía,18010,Spain,37.182424,-3.591649
Rúa do Miradoiro,2,Vigo,Pontevedra,,36210,Spain,42.2214122,-8.7236412
Calle las Minas,1,Magán,Toledo,Castilla-La Mancha,45590,Spain,39.9590758,-3.935928
Carretera de la Fuensanta,38,Alcaudete,Jaén,Andalucía,23660,Spain,37.5891037,-4.0764503
Calle de Eduardo Dato,4,Zaragoza,Zaragoza,Aragón,50005,Spain,41.6457424,-0.8898989
Carretera d'Argentona,3,Cabrera de Mar,Barcelona,Catalunya,8349,Spain,41.5157413,2.3955502
Carrer dels Llacs,4,Guissona,Lleida,Catalunya,25210,Spain,41.7813835,1.2781364
Carrer de l'Era,14,Vilaplana,Tarragona,Catalunya,43380,Spain,41.22755,1.03302
Avenida Iglesia,10,O Pedrouzo,La Coruña,,15821,Spain,42.9015244,-8.3626641
Avenida Galicia,26,Culleredo,A Coruña,,15670,Spain,43.3144667,-8.3650884
Calle Ramón García Argüelles,4,Langreo,Asturias,,33930,Spain,43.313731,-5.6915376
Calle del Romero,7,Villanueva de la Serena,Badajoz,Extremadura,6700,Spain,38.9675712,-5.7898704
Plaza de la Venta,1,Iznájar,Córdoba,Andalucía,14970,Spain,37.2567884,-4.3039547
Calle Lisboa,2,Costa Adeje,Santa Cruz de Tenerife,Canarias,38660,Spain,28.087693,-16.728154
Calle Molino,9,Jatiel,Teruel,Aragón,44592,Spain,41.2185972,-0.380812
Avinguda de Catalunya,132,Cervera,Lérida,Cataluña,25200,Spain,41.6710265,1.2692904
Calle Intxaurdia,5,Pamplona,Navarra,Navarra,31620,Spain,42.8288092,-1.5835447
Avenida Andalucia,76,Torres de Albánchez,Jaén,Andalucía,23391,Spain,38.4152516,-2.6814503
Avinguda de la Carretera d'Igualada,1,Calaf,Barcelona,Catalunya,8280,Spain,41.7287353,1.5134425
Avenida de la Osa Mayor,92,Madrid,Madrid,Comunidad de Madrid,28023,Spain,40.4592868,-3.7849955
Calle del Capataz Santiago Gómez Nogurón,19,Montealegre del Castillo,Albacete,Castilla-La Mancha,2650,Spain,38.785756,-1.3304346
Calle Arrabal,26,Puebla de Sanabria,Zamora,Castilla y León,49300,Spain,42.0518132,-6.6334067
Calle San Benito,1,Villanueva de la Serena,Badajoz,Extremadura,6700,Spain,38.9738365,-5.8011603
Calle Resejo,10,Riaño,León,Castilla y León,24900,Spain,42.9764633,-5.0038132
lugar O Covelo,1,Parga,Lugo,,27380,Spain,43.1529322,-7.8363366
Camin de la Pasadiella,85,Gijón,Asturias,,33394,Spain,43.5134865,-5.5988385
Plaça de l'Església,7,L'Espluga de Francolí,Tarragona,Catalunya,43440,Spain,41.3964554,1.1036245
Calle Torrecillas,2,Mecina-Fondales,Granada,Andalucía,18414,Spain,36.92965,-3.32268
Calle Cántabra,8,Potes,Cantabria,Cantabria,39570,Spain,43.153341,-4.623949
Calzada Martiánez,17,Puerto de la Cruz,Santa Cruz de Tenerife,Canarias,38400,Spain,28.4138658,-16.5421705
Plaza Doctor Madrazo,15,Vega de Pas,Cantabria,Cantabria,39685,Spain,43.1583383,-3.7820152
Calle Zaldívar,21,Villaviciosa,Asturias,,33300,Spain,43.4805429,-5.4328609
Passeig de l'Estació,43,Balaguer,Lleida,Catalunya,25600,Spain,41.7890665,0.8129758
Calle Antonio Maura,5,Utiel,Valencia,Comunidad Valenciana,46300,Spain,39.5666714,-1.2073825
LE-512,18,Villanueva de las Manzanas,León,Castilla y León,24225,Spain,42.4497504,-5.5012385
Praza de España,16,A Coruña,A Coruña,,15001,Spain,43.3728413,-8.3971863
Calle las Cuevas,246,San Asensio,La Rioja,La Rioja,26340,Spain,42.5000879,-2.7537982
Plaza Pradollano,31,Sierra Nevada,Granada,Andalucía,18196,Spain,37.095631,-3.399802
Rúa Valdriz,16,Láncara,Lugo,,27360,Spain,42.8658333,-7.4444444
Av. de España,101,Lo Jurado,Murcia,Región de Murcia,30154,Spain,37.804822,-1.130999
Carrer del Comerç,14,Moià,Barcelona,Catalunya,8180,Spain,41.81172,2.09671
Calle de Blas Infante,52,Rute,Córdoba,Andalucía,14960,Spain,37.3242766,-4.371384
Avenida de Jaén,32,Valdepeñas de Jaén,Jaén,Jaén,23150,Spain,37.591247,-3.81307
Avenida Santa Clara,5,Illescas,Toledo,Castilla-La Mancha,45200,Spain,40.153342,-3.8279464
Plaza Mayor,1,Lerma,Burgos,Castilla y León,9340,Spain,42.0261111,-3.7553222
Avenida Andalucía,55,Guillena,Sevilla,Andalucía,41210,Spain,37.5406599,-6.0555653
AL-7107,32,Cuevas del Almanzora,Almería,Andalucía,4616,Spain,37.2470236,-1.7739067
Calle Oturia,34,Yebra de Basa,Huesca,Aragón,22610,Spain,42.4863224,-0.2813019
Calle Condes,3,Cáceres,Cáceres,Extremadura,10003,Spain,39.4732532,-6.3714487
Calle Egido,49,Palacios de Becedas,Ávila,Castilla y León,5694,Spain,40.39862,-5.60512
Lugar Barrio Erdigune,1,Maruri,Vizcaya,País Vasco,48112,Spain,43.3805556,-2.8683333
Iglesia,22,Abegondo,La Coruña,,15318,Spain,43.2731812,-8.280433
Calle Urrea,50,Chiva,Valencia,Comunidad Valenciana,46370,Spain,39.4571495,-0.73188
Calle Rinconcillo,5,La Isleta del Moro,Almería,Andalucía,4118,Spain,36.8143218,-2.0511282
Calle la Hondura,11,Puerto de Santiago,Santa Cruz de Tenerife,Canarias,38683,Spain,28.23899,-16.84458
Calle Conde de Cedillo,15,Cedillo del Condado,Toledo,Castilla-La Mancha,45214,Spain,40.1137259,-3.9245075
Carrer del Mar,8,Sa Riera,Girona,Catalunya,17255,Spain,41.9719336,3.2112861
Vilasoa,15,Bendoiro,Pontevedra,,36512,Spain,42.678665,-8.166113
Calle Libertad,10,Cardiel de los Montes,Toledo,Castilla-La Mancha,45642,Spain,40.0629869,-4.6546546
Rúa Concepción Arenal,21,Oleiros,A Coruña,,15179,Spain,43.3454292,-8.3455008
LP-213,209,Los Llanos,Santa Cruz de Tenerife,Canarias,38769,Spain,28.6401611,-17.9072964
Rua Concepción Arenal,10,A Coruña,A Coruña,,15006,Spain,43.3576765,-8.4032324
Avenida del Moncayo,2,San Sebastián de los Reyes,Madrid,Comunidad de Madrid,28703,Spain,40.5553014,-3.6144786
Calle Camino Real,1,La Vid,Burgos,Castilla y León,9471,Spain,41.6298573,-3.4887968
Rúa de Rosalía de Castro,12,Santa Comba,A Coruña,,15840,Spain,43.0349525,-8.8167672
Calle Tamarco,22,Las Playitas,Las Palmas,Canarias,35629,Spain,28.2301502,-13.9837818
Carretera de Montblanc a Artesa,56,Solivella,Tarragona,Cataluña,43412,Spain,41.4554481,1.1786892
Plaza de Fernando Miranda,5,León,León,Castilla y León,24402,Spain,42.5471356,-6.6016586
Calle Preventorio,17,Las Rosas,Santa Cruz de Tenerife,Canarias,38290,Spain,28.4368229,-16.3723916
Ambasaguas Auzoa,37,Ambasaguas,Bizkaia,Euskadi,48890,Spain,43.2380519,-3.359032
Iturgitxi Kalea,4,Gorliz,Bizkaia,Euskadi,48630,Spain,43.4076114,-2.9443762
Paseo del Hospital Militar,17,Valladolid,Valladolid,Castilla y León,47007,Spain,41.642436,-4.7322351
Avenida Río Cúa,20,Fabero,León,Castilla y León,24420,Spain,42.7679871,-6.6286035
Calle José Antonio,24,Torremendo,Alicante,Comunidad Valenciana,3313,Spain,37.9917631,-0.8662435
Calle Ramirez y Pastor,21,Palenzuela,Palencia,Castilla y León,34257,Spain,42.0948829,-4.1277536
Ronda de la Comunicación,5,Madrid,Madrid,Comunidad de Madrid,28050,Spain,40.5178019,-3.6669933
Calle Doctor Nacher,36,Chiva,Valencia,Comunidad Valenciana,46370,Spain,39.4716225,-0.717303
Plaza Emilio Reina,6,Puente Genil,Córdoba,Andalucía,14500,Spain,37.3883312,-4.7803425
Vilar de Abaixo,9,Santa Comba,A Coruña,,15837,Spain,42.9929314,-8.8675403
Calle Real,9,Robledo de Caldas,León,Castilla y León,24146,Spain,42.937451,-5.9127621
Carrer Doctor Codina,114,La Cellera de Ter,Girona,Catalunya,17165,Spain,41.97384,2.62104
Calle Lucena,7,Moriles,Córdoba,Andalucía,14510,Spain,37.4363216,-4.6062031
Av. de España,101,Lo Jurado,Murcia,Región de Murcia,30154,Spain,37.804822,-1.130999
Avenida del Campillo,11,Arroyo Frio,Jaén,Andalucía,23479,Spain,37.9452904,-2.9209701
Calle Virgen de Gracia,2,Belmonte,Cuenca,Castilla-La Mancha,16640,Spain,39.556006,-2.7067533
Carrer des Pou Florit,63,Porreres,Illes Balears,Illes Balears,7260,Spain,39.5142864,3.025874
Carretera de Barcelona,12,Castellterçol,Barcelona,Catalunya,8183,Spain,41.7496544,2.1237881
Pinos,57,Santa Cruz de Tenerife,Santa Cruz de Tenerife,Canarias,38750,Spain,28.6470206,-17.8998647
Carretera de Águilas,53,Lorca,Murcia,Región de Murcia,30800,Spain,37.6564782,-1.6898622
Calle Paco Segovia,22,Las Navas del Marqués,Ávila,Castilla y León,5230,Spain,40.603268,-4.3336131
Avenida de la Constitución,2,Catral,Alicante,Comunidad Valenciana,3158,Spain,38.1608396,-0.8015043
Calle del Mar,1,Vera,Almería,Andalucía,4620,Spain,37.2490565,-1.8695788
LE-512,18,Villanueva de las Manzanas,León,Castilla y León,24225,Spain,42.4497504,-5.5012385
Carrer Mare de Déu de les Neus,6,Sabadell,Barcelona,Catalunya,8202,Spain,41.5505361,2.1077053
Calle Almez,2,Vélez-Rubio,Almería,Andalucía,4820,Spain,37.6465103,-2.0759806
Calle Pablo Picasso,59,Agudo,Ciudad Real,Castilla-La Mancha,13410,Spain,38.983417,-4.868053
Carrer Antoni Guix i Ribelles,25,Lleida,Lleida,Catalunya,25191,Spain,41.611003,0.66182
Rúa Lugo,18,Santa Comba,A Coruña,,15840,Spain,43.03226,-8.8116299
Carretera de Montblanc a Artesa,56,Solivella,Tarragona,Cataluña,43412,Spain,41.4554481,1.1786892
Avinguda Sra. Magdalena Martorell,65,Les Borges del Camp,Tarragona,Cataluña,43350,Spain,41.1717094,1.0213134
Lauaxeta Olerkari Kalea,4,Mungia,Bizkaia,Euskadi,48100,Spain,43.356083,-2.8487787
Polígon Can Font de la Parera,1,La Roca del Vallès,Barcelona,Catalunya,8430,Spain,41.6090684,2.3529932
Avenida José Manuel Abascal,2,Vega de Pas,Cantabria,Cantabria,39685,Spain,43.1580231,-3.7835438
Calle de Pedro Niño,1,Valladolid,Valladolid,Castilla y León,47001,Spain,41.6514186,-4.7313942
Lugar Paradela,10,O Rosal,Pontevedra,,36760,Spain,41.9263742,-8.8018945
Paseo del Huécar,2,Cuenca,Cuenca,Castilla-La Mancha,16001,Spain,40.0749935,-2.1305442
Carretera de Irún a Vitoria-Gasteiz,28,Idiazábal,Guipúzcoa,País Vasco,20213,Spain,42.9494667,-2.2277715
Calle Camino San Marcial,14,Tudela,Navarra,Navarra,31500,Spain,42.0615692,-1.601127
Carretera Zamora,5018,Calzada de Valdunciel,Salamanca,Castilla y León,37797,Spain,41.0839227,-5.6968746
Avenida Pablo Picasso,6,Ojén,Málaga,Andalucía,29610,Spain,36.5634405,-4.8547751
Calle de Alfonso XII,18,Madrid,Madrid,Comunidad de Madrid,28014,Spain,40.4171891,-3.6891374
Camino de Aguete,172,Seixo,Pontevedra,,36913,Spain,42.374197,-8.7312468
Calle Navegante Juan Patiño,78,Villanueva de la Serena,Badajoz,Extremadura,6700,Spain,38.97225,-5.7916999
Calle Fuentes,60,Moguer,Huelva,Andalucía,21800,Spain,37.2727603,-6.8349068
Carrer Major,62,Vilaplana,Tarragona,Catalunya,43380,Spain,41.2265976,1.0335245
Calle Ramón García Argüelles,4,Langreo,Asturias,,33930,Spain,43.313731,-5.6915376
Avenida Rey Juan Carlos I,38,Puerto Lumbreras,Murcia,Región de Murcia,30890,Spain,37.5675665,-1.8025343
Sant Joan de Fabregues,10,Rupit,Barcelona,Catalunya,8569,Spain,42.02472,2.4641621
Calle Bolivia,26,Málaga,Málaga,Andalucía,29018,Spain,36.7208969,-4.3816582
Calle del Parador,12,Molina de Aragón,Guadalajara,Castilla-La Mancha,19300,Spain,40.8441758,-1.8927642
Rúa de Rosalía de Castro,12,Santa Comba,A Coruña,,15840,Spain,43.0349525,-8.8167672
Rúa Rosalía de Castro,7,A Coruña,A Coruña,,15004,Spain,43.3655907,-8.407542
Calle Solanar,12,Used,Zaragoza,Aragón,50374,Spain,41.0550955,-1.5605409
Calle Don Miguel Robledo Carrasco,24,Valverde del Fresno,Cáceres,Extremadura,10890,Spain,40.2159855,-6.8711214
Estrada Baños de Arteixo,43,A Coruña,A Coruña,,15008,Spain,43.3454114,-8.4292933
Calle Larga,23,Cuenca,Cuenca,Castilla-La Mancha,16001,Spain,40.0819975,-2.1254472
Rua Trasdeza,14,Silleda,Pontevedra,,36540,Spain,42.6991728,-8.2512074
Calle Cutu La Piedra,3,Langreo,Asturias,,33930,Spain,43.3175348,-5.6932635
Avenida de Fraga,6,Sariñena,Huesca,Aragón,22200,Spain,41.7926369,-0.1562206
Calle calzada,9,Villarmayor,Salamanca,Castilla y León,37130,Spain,41.0142206,-5.976175
Vilasoa,15,Bendoiro,Pontevedra,,36512,Spain,42.678665,-8.166113
Plaza de la Constitución,6,Guisando,Ávila,Castilla y León,5417,Spain,40.2224038,-5.1407401
Rua Trasdeza,35,Silleda,Pontevedra,,36540,Spain,42.6987533,-8.2488489
Carrer Vaquet,1,Estellencs,Illes Balears,Illes Balears,7192,Spain,39.6538986,2.4808833
Plaza Doctor Madrazo,15,Vega de Pas,Cantabria,Cantabria,39685,Spain,43.1583383,-3.7820152
Calle Zaldívar,21,Villaviciosa,Asturias,,33300,Spain,43.4805429,-5.4328609
Paseo el Mar,19,Roquetas de Mar,Almería,Andalucía,4740,Spain,36.7226714,-2.6260655
Espoloia Kalea,12,Bergara,Gipuzkoa,Euskadi,20570,Spain,43.113219,-2.4149952
Avenida de Emilio Romero,57,Arévalo,Ávila,Castilla y León,5200,Spain,41.054661,-4.7116126
Avenida Libertad,161,Hellín,Albacete,Castilla-La Mancha,2400,Spain,38.5257214,-1.7033073
Praza Galicia,2-3,A Coruña,A Coruña,,15004,Spain,43.3650479,-8.406757
Calle San Francisco,4,Avilés,Asturias,,33402,Spain,43.555245,-5.9227782
Plaza Mayor,1,Lerma,Burgos,Castilla y León,9340,Spain,42.0261111,-3.7553222
Carrer Sant Roc,4,Camprodon,Girona,Catalunya,17867,Spain,42.3121194,2.3652157
Avenida de Pablo Neruda,91,Madrid,Madrid,Comunidad de Madrid,28018,Spain,40.380979,-3.663015
Mercadillo Auzoa,6,Mercadillo,Bizkaia,Euskadi,48190,Spain,43.2692418,-3.1536857
Calle Juan Chaumel,10,Villena,Alicante,Comunidad Valenciana,3400,Spain,38.6324419,-0.8635802
Plaza de la Autonomía,1,Alarcón,Cuenca,Castilla-La Mancha,16214,Spain,39.5464484,-2.084804
Plaza Calderón de la Barca,50,Zalamea de la Serena,Badajoz,Extremadura,6430,Spain,38.6522961,-5.6591204
Caserio los Mocanes,137,Vallehermoso,Santa Cruz de Tenerife,Canarias,38891,Spain,28.1839237,-17.2373543
Lugar Cañu,3,Caño,Asturias,,33557,Spain,43.330869,-5.1364692
Calle de José María Lacarra de Miguel,23,Zaragoza,Zaragoza,Aragón,50008,Spain,41.6452435,-0.8820982
Calle Campana,5,Sevilla,Sevilla,Andalucía,41004,Spain,37.3925273,-5.9950689
Calle Virgen Loreto,3,Bejís,Castellón,Comunidad Valenciana,12430,Spain,39.9099551,-0.7076097
Carretera de Ávila,4,San Martín de Valdeiglesias,Madrid,Comunidad de Madrid,28680,Spain,40.3611018,-4.4030717
Avenida de Murcia,14,Murcia,Murcia,Región de Murcia,30155,Spain,37.8696945,-1.1288457
Carrer del Comerç,14,Moià,Barcelona,Catalunya,8180,Spain,41.81172,2.09671
Plaza Castillo de Irulegui Enparantza,9,Mutilva Baja,Navarra,Navarra,31192,Spain,42.7923429,-1.6149388
Carrer Pi i Ralló,7,Begur,Girona,Catalunya,17255,Spain,41.9548707,3.2076928
Calle Derecha,56,Mayorga,Valladolid,Castilla y León,47680,Spain,42.1664692,-5.2638424
Carretera General,98,Los Canarios,Santa Cruz de Tenerife,Canarias,38740,Spain,28.49432,-17.84535
Plaza Mayor,7,Chañe,Segovia,Castilla y León,40216,Spain,41.3379745,-4.4291596
Calle Valdemolinos,2,Toledo,Toledo,Castilla-La Mancha,45006,Spain,39.8647276,-3.9699758
Calle Fuente,1,La Aceña de la Borrega,Cáceres,Extremadura,10515,Spain,39.3228393,-7.2275778
Avenida Principal,116,Las Navas del Marqués,Ávila,Castilla y León,5230,Spain,40.6027793,-4.3336191
Calle Guzmán el Bueno,18,Albacete,Albacete,Castilla-La Mancha,2002,Spain,38.9916582,-1.8530694
Rúa Aro,9,Oleiros,A Coruña,,15178,Spain,43.3582354,-8.3415896
Calle Padre Anchieta,10,Santa Cruz de Tenerife,Santa Cruz de Tenerife,Canarias,38005,Spain,28.4638763,-16.2536405
Calle Mayor,4,Torrelaguna,Madrid,Comunidad de Madrid,28180,Spain,40.8260617,-3.5381941
Calle de San Blas,4,Madrid,Madrid,Comunidad de Madrid,28014,Spain,40.4106783,-3.6947231
Iglesia,22,Abegondo,La Coruña,,15318,Spain,43.2731812,-8.280433
Hegoalde Kalea,2,Urduliz,Bizkaia,Euskadi,48610,Spain,43.3739878,-2.9512283
Carretera de Águilas,53,Lorca,Murcia,Región de Murcia,30800,Spain,37.6564782,-1.6898622
Plaza España,7,Luna,Zaragoza,Aragón,50610,Spain,42.1668184,-0.9320238
Calle Uría,29,Cangas del Narcea,Asturias,,33800,Spain,43.177118,-6.549352
Calle Sánchez Barbero,9,Salamanca,Salamanca,Castilla y León,37002,Spain,40.9637627,-5.6644029
Calle Industrial Hernisa I,16,Toledo,Toledo,Castilla-La Mancha,45007,Spain,39.869856,-3.954647
Ma-2130,4,Selva,Illes Balears,Illes Balears,7313,Spain,39.7507233,2.9024261
Carretera de la Sierra,11,Burunchel,Jaén,Andalucía,23479,Spain,37.9454006,-2.9532864
Calle del Mar,1,Vera,Almería,Andalucía,4620,Spain,37.2490565,-1.8695788
Plaza de los Bootello,12,Montijo,Badajoz,Extremadura,6480,Spain,38.907815,-6.6167638
Calle Orfeón Fernández Caballero,30,Puerto Lumbreras,Murcia,Región de Murcia,30890,Spain,37.5638691,-1.8047508
Calle Mayor,44,Alcocer,Guadalajara,Castilla-La Mancha,19125,Spain,40.469899,-2.6112713
C-59,1,Moià,Barcelona,Cataluña,8180,Spain,41.808913,2.0983357
Calle Iglesia,5,Brazatortas,Ciudad Real,Castilla-La Mancha,13450,Spain,38.6583585,-4.2922385
Avenida de Jaén,32,Valdepeñas de Jaén,Jaén,Jaén,23150,Spain,37.591247,-3.81307
Calle San Román Orto,23,San Román,A Coruña,,15318,Spain,43.2802131,-8.2758206
Calle el Pascón,16,Vega de Espinareda,León,Castilla y León,24430,Spain,42.7281646,-6.6534591
C/Justino de Azcárate,1,León,León,Castilla y León,24008,Spain,42.6356345,-5.6011803
Rúa Ricardo Cubeiro,4,Oleiros,A Coruña,,15179,Spain,43.3467442,-8.3474153
Calle Núñez de Arce,3,Toledo,Toledo,Castilla-La Mancha,45001,Spain,39.8599934,-4.0228894
Rúa Aro,9,Oleiros,A Coruña,,15178,Spain,43.3582354,-8.3415896
Calle Lucena,7,Moriles,Córdoba,Andalucía,14510,Spain,37.4363216,-4.6062031
Paseo García del Olmo,2,Antequera,Málaga,Andalucía,29200,Spain,37.0252811,-4.5639824
Calle las Cruces,17,Utiel,Valencia,Comunidad Valenciana,46300,Spain,39.568892,-1.202492
CC-71,605,Aldea del Cano,Cáceres,Extremadura,10163,Spain,39.2902467,-6.3286424
Calle Camino San Marcial,14,Tudela,Navarra,Navarra,31500,Spain,42.0615692,-1.601127
Calle Extremadura,4,Casas de Reina,Badajoz,Extremadura,6960,Spain,38.2024769,-5.9703291
Calle la Fuente,28,Campisábalos,Guadalajara,Castilla-La Mancha,19275,Spain,41.2689908,-3.1456709
Carrer de Palma,185,Montuïri,Illes Balears,Illes Balears,7230,Spain,39.5636569,2.9749719
Calle Ramirez y Pastor,21,Palenzuela,Palencia,Castilla y León,34257,Spain,42.0948829,-4.1277536
Avenida de la Coronación,6,Villamartin,Cádiz,Andalucía,11650,Spain,36.8620435,-5.6466599
Calle Almez,2,Vélez-Rubio,Almería,Andalucía,4820,Spain,37.6465103,-2.0759806
Calle Carretera de Liria,69,Cheste,Valencia,Comunidad Valenciana,46380,Spain,39.4946648,-0.6887883
Avenida de Castilla,2,Colmenar de Oreja,Madrid,Comunidad de Madrid,28380,Spain,40.0776823,-3.48686
Carrer dels Angels,11,Selva,Illes Balears,Illes Balears,7313,Spain,39.7540893,2.9008524
Calle Puente,39,Aguilar de Campoo,Palencia,Castilla y León,34800,Spain,42.7927911,-4.2648271
Carrer de Ciutat,6,Puigpunyent,Illes Balears,Illes Balears,7194,Spain,39.6218963,2.5277045
Calle las Minas,1,Magán,Toledo,Castilla-La Mancha,45590,Spain,39.9590758,-3.935928
Rúa Principal,130,Boiro,A Coruña,,15930,Spain,42.6458311,-8.8900275
Calle Juan Chaumel,10,Villena,Alicante,Comunidad Valenciana,3400,Spain,38.6324419,-0.8635802
Calle Santa María,7,Paredes de Nava,Palencia,Castilla y León,34300,Spain,42.1544952,-4.6918816
Calle Cardenal Reig,15,Ocaña,Toledo,Castilla-La Mancha,45300,Spain,39.9620631,-3.4911907
Santiso,55,El Pino,La Coruña,,15821,Spain,42.9147,-8.4134658
Avenida Jerez,42,El Cuervo,Sevilla,Andalucía,41749,Spain,36.852508,-6.0411907
Calle Chelva,15,Higueruelas,Valencia,Comunidad Valenciana,46170,Spain,39.7886643,-0.8616095
Calle Puentes,1,Albarracín,Teruel,Aragón,44100,Spain,40.407689,-1.4422331
Avenida Castilla la Mancha,31,Mocejón,Toledo,Castilla-La Mancha,45270,Spain,39.9377379,-3.917567
Calle la Rambla,18,Pinzón,Sevilla,Andalucía,41728,Spain,37.1104763,-6.0183193
Cabana -Anceis,5,Pontido,A Coruña,,15181,Spain,43.2808061,-8.3607298
Avenida Doctor Garcia Castillo,5,Granada,Granada,Andalucía,18820,Spain,37.9589761,-2.433485
Calle Resejo,10,Riaño,León,Castilla y León,24900,Spain,42.9764633,-5.0038132
Passeig de Sant Joan,40,Manlleu,Barcelona,Catalunya,8560,Spain,41.9998884,2.2861772
Calle Mably,2,Murcia,Murcia,Región de Murcia,30890,Spain,37.5615768,-1.8091169
Carrer de Sant Tomàs,11,Lloret de Mar,Girona,Cataluña,17310,Spain,41.6987801,2.8466463
Avenida Castilla,46,Cheste,Valencia,Comunidad Valenciana,46380,Spain,39.4924233,-0.6823977
AP-1,36,Km,Burgos,Castilla y León,9240,Spain,42.5263612,-3.3334727
Avenida de Andalucia,87,Vélez-Rubio,Almería,Andalucía,4820,Spain,37.6481399,-2.0774395
Rúa das Arcas,2,Monterroso,Lugo,,27560,Spain,42.7924047,-7.8318992
Calle los Gavilanes,8,Teguedite,Santa Cruz de Tenerife,Canarias,38589,Spain,28.17147,-16.4968499
Plaza de la Constitución,2,Montejícar,Granada,Andalucía,18561,Spain,37.5721939,-3.5046262
Avenida de Emilio Romero,57,Arévalo,Ávila,Castilla y León,5200,Spain,41.054661,-4.7116126
Calle Navarra,57,Lillo,Toledo,Castilla-La Mancha,45870,Spain,39.7295479,-3.3080833
Calle Mariana Pineda,13,Ocaña,Toledo,Castilla-La Mancha,45300,Spain,39.9563763,-3.4965948
Calle Millán Astray,6,Armunia,León,Castilla y León,24009,Spain,42.57321,-5.5874621
Paseo Anciles,5,Benasque,Huesca,Aragón,22440,Spain,42.6016925,0.5220937
Calle Cruz de Orea,51,Cazorla,Jaén,Andalucía,23470,Spain,37.9117133,-3.0046467
Calle Condes,3,Cáceres,Cáceres,Extremadura,10003,Spain,39.4732532,-6.3714487
GR-6100,50,Gor,Granada,Andalucía,18870,Spain,37.399333,-2.9925218
Avenida de la Constitución,22,Hellín,Albacete,Castilla-La Mancha,2400,Spain,38.5092651,-1.7054034
Avenida de la Cabrera,87,La Cabrera,Madrid,Comunidad de Madrid,28751,Spain,40.8756689,-3.6035123
Carrer Sant Jaume,87,Torreblanca,Castelló,Comunidad Valenciana,12596,Spain,40.2214626,0.1982754
Calle Espolon,22-24,Hortigüela,Burgos,Castilla y León,9640,Spain,42.068652,-3.4252106
Avenida Francisca Herrera,50,Oleiros,La Coruña,,15173,Spain,43.331382,-8.327905
Calle Poeta García Lorca,5,Puente Genil,Córdoba,Andalucía,14500,Spain,37.3917565,-4.7684078
Plaza de la Catedral,1,Huesca,Huesca,Aragón,22002,Spain,42.1406638,-0.408934
Calle Hoz,3,Cazorla,Jaén,Andalucía,23470,Spain,37.9081764,-2.9998951
Rua Concepción Arenal,10,A Coruña,A Coruña,,15006,Spain,43.3576765,-8.4032324
Ursuaran Diseminado Auzoa,22,Idiazabal,Gipuzkoa,Euskadi,20213,Spain,42.9494259,-2.2276505
Espoloia Kalea,12,Bergara,Gipuzkoa,Euskadi,20570,Spain,43.113219,-2.4149952
Calzada Martiánez,17,Puerto de la Cruz,Santa Cruz de Tenerife,Canarias,38400,Spain,28.4138658,-16.5421705
Rua Enrique Mariñas Romero,36,A Coruña,A Coruña,,15009,Spain,43.3390617,-8.403922
Calle los Limoneros,43,Puerto Lumbreras,Murcia,Región de Murcia,30890,Spain,37.5666047,-1.7967279
Calle Campo de San Nicolás,11,Medinaceli,Soria,Castilla y León,42240,Spain,41.1716048,-2.4328195
Calle Egido,49,Palacios de Becedas,Ávila,Castilla y León,5694,Spain,40.39862,-5.60512
Avenida Manuel Reina,23,Puente Genil,Córdoba,Andalucía,14500,Spain,37.3913373,-4.7677623
Calle San Vicente Mártir,44,Valencia,Valencia,Comunidad Valenciana,46001,Spain,39.4709041,-0.3780397
Calle Manuel Álvarez Miranda,13,Villaviciosa,Asturias,,33300,Spain,43.4817014,-5.4314675
Calle San Bernardo,13,Puebla de Sanabria,Zamora,Castilla y León,49300,Spain,42.054045,-6.634235
Calle del Egido,13,Cazalla de la Sierra,Sevilla,Andalucía,41370,Spain,37.9328047,-5.7604089
OU-0102,24,Penelas,Ourense,,32112,Spain,42.2558228,-7.7693264
Avenida de Juan XXIII,5,Pozuelo de Alarcón,Madrid,Comunidad de Madrid,28224,Spain,40.4488994,-3.8012725
Lugar Vilariño,20,Forcarei,Pontevedra,,36556,Spain,42.550935,-8.2839875
Calle Chillida,1,Roquetas de Mar,Almería,Andalucía,4740,Spain,36.818959,-2.5978576
Avenida de Merelles,33,Orense,Ourense,,32520,Spain,42.4663669,-8.2735949
Travesía Alfonso XIII,26,Ferreruela,Zamora,Castilla y León,49550,Spain,41.7661659,-6.0715811
Avenida José Manuel Abascal,2,Vega de Pas,Cantabria,Cantabria,39685,Spain,43.1580231,-3.7835438
AS-114,34,Cangas de Onís,Asturias,,33556,Spain,43.3375355,-5.0062467
Calle Agua,44,Grazalema,Cádiz,Andalucía,11610,Spain,36.7585202,-5.3652158
Carretera Guadalupe,3,Logrosán,Cáceres,Extremadura,10120,Spain,39.3334904,-5.4799596
Calle General Campomanes,18,Villaviciosa,Asturias,,33300,Spain,43.4794194,-5.4336162
Avinguda de les Alegries,9-11,Lloret de Mar,Girona,Catalunya,17310,Spain,41.7044031,2.8343369
Calle Mayor,17,Samper del Salz,Zaragoza,Aragón,50134,Spain,41.2339002,-0.8256666
Calle Miguel Hernández,37,Benejúzar,Alicante,Comunidad Valenciana,3390,Spain,38.0764153,-0.8388973
Calle Hoyo,4,Andújar,Jaén,Andalucía,23740,Spain,38.0371875,-4.0528539
Avenida Andalucía,55,Guillena,Sevilla,Andalucía,41210,Spain,37.5406599,-6.0555653
Calle Gonzalez Palencia,35,Gea de Albarracín,Teruel,Aragón,44110,Spain,40.4118866,-1.3476914
Calle Diseminados,1066,Aranda de Duero,Burgos,Castilla y León,9400,Spain,41.6774473,-3.6913499
Calle a Pp-1,6,Vinaròs,Castellón,Comunidad Valenciana,12500,Spain,40.4553504,0.4536492
Carrer Sant Antoni,33,Torreblanca,Castelló,Comunidad Valenciana,12596,Spain,40.2201593,0.1943547
Avenida de Santiago,12,Santa Comba,La Coruña,,15840,Spain,43.0334579,-8.8039045
Calle del Museo,29,Baamonde,Lugo,,27371,Spain,43.1753044,-7.7603722
Rúa Os Muiños,32,Figueiró,Pontevedra,,36792,Spain,41.96796,-8.780672
Plaza Mayor,9,Luintra,Ourense,,32160,Spain,42.4110167,-7.7273173
Calle de Eduardo Dato,4,Zaragoza,Zaragoza,Aragón,50005,Spain,41.6457424,-0.8898989
Carretera de Montblanc a Artesa,56,Solivella,Tarragona,Cataluña,43412,Spain,41.4554481,1.1786892
Carrer del Comerç,14,Moià,Barcelona,Catalunya,8180,Spain,41.81172,2.09671
Carrer Antoni Guix i Ribelles,25,Lleida,Lleida,Catalunya,25191,Spain,41.611003,0.66182
Calle Carretera,41,Ojén,Málaga,Andalucía,29610,Spain,36.5652623,-4.8560301
Rúa San Juan,17,Sobrado do Bispo,Ourense,,32890,Spain,42.2905258,-7.9059889
Calle Empedrada,4,San Martín de Pusa,Toledo,Castilla-La Mancha,45170,Spain,39.7829357,-4.6314146
Calle Rosas,274,Agulo,Santa Cruz de Tenerife,Canarias,38890,Spain,28.1865243,-17.2221801
Espoloia Kalea,12,Bergara,Gipuzkoa,Euskadi,20570,Spain,43.113219,-2.4149952
Plaza España,2,Cazalegas,Toledo,Castilla-La Mancha,45683,Spain,40.0109274,-4.6776227
Plaza de la Catedral,1,Huesca,Huesca,Aragón,22002,Spain,42.1406638,-0.408934
Carretera d'Artesa de Segre,3,Montblanc,Tarragona,Catalunya,43400,Spain,41.3818206,1.1612195
Calle Camino,24,Utiel,Valencia,Comunidad Valenciana,46300,Spain,39.5657846,-1.2047257
c/ Carrobierzo,28,Jiménez de Jamuz,León,Castilla y León,24767,Spain,42.2713503,-5.933386
Calle Ronda,5,Fuensaldaña,Valladolid,Castilla y León,47194,Spain,41.7050088,-4.7635813
Avinguda Notari Alemany,1,Calvià,Illes Balears,Illes Balears,7181,Spain,39.5045988,2.5326563
Avenida Maestra Soledad Gallego,42,Murcia,Murcia,Región de Murcia,30110,Spain,38.0186139,-1.136792
Carrer del Segre,30,Martinet,Lleida,Catalunya,25724,Spain,42.3599486,1.6973217
Carrer Matagalls,9,Granollers,Barcelona,Catalunya,8402,Spain,41.6114405,2.3030235
Calle Baja,6,La Puebla de Roda,Huesca,Aragón,22482,Spain,42.302807,0.5417387
Rua Enrique Mariñas Romero,36,A Coruña,A Coruña,,15009,Spain,43.3390617,-8.403922
Calle Ancha,60,Lillo,Toledo,Castilla-La Mancha,45870,Spain,39.7224986,-3.307935
Plaza Mayor,3,El Frago,Zaragoza,Aragón,50610,Spain,42.2722675,-0.9315989
Avenida de Santiago,47,Santa Comba,La Coruña,,15840,Spain,43.0314285,-8.8000434
Avenida de Viñuelas,17,Tres Cantos,Madrid,Comunidad de Madrid,28760,Spain,40.5962312,-3.705407
Calle Granada,5,Quel,La Rioja,La Rioja,26570,Spain,42.23437,-2.06624
Calle Ramón y Cajal,2,Belmonte,Cuenca,Castilla-La Mancha,16640,Spain,39.5592397,-2.7085724
Praza do Concello,6,Salceda de Caselas,Pontevedra,,36470,Spain,42.1021138,-8.5583456
Avenida Juan Ramón Jiménez,192,Calasparra,Murcia,Región de Murcia,30420,Spain,38.2226962,-1.7150523
Avenguda Baile Calbetó Barra,1,Vielha,Lérida,Cataluña,25530,Spain,42.7033284,0.7933982
Calle Alfonso de Castro,28,Rute,Córdoba,Andalucía,14960,Spain,37.3255539,-4.3694062
Ibargarai Hiribidea,37,Bergara,Gipuzkoa,Euskadi,20570,Spain,43.1136671,-2.4159189
Avinguda de l'Onze de Setembre,27,Begur,Girona,Catalunya,17255,Spain,41.953553,3.204499
Carrer de Dalt Vilanova,1,Menorca,Illes Balears,Illes Balears,7701,Spain,39.8915544,4.259214
Calle de la Victoria,8,Trujillo,Cáceres,Extremadura,10200,Spain,39.460317,-5.8838999
Avenida Chile,40,Villanueva de la Serena,Badajoz,Extremadura,6700,Spain,38.9719692,-5.79038
Paseo Anciles,5,Benasque,Huesca,Aragón,22440,Spain,42.6016925,0.5220937
Calle Ramón Alfonso,19,La Puebla de Alfindén,Zaragoza,Aragón,50171,Spain,41.6347437,-0.7508441
Avenida de la Coronación,10,Bollullos Par del Condado,Huelva,Andalucía,21710,Spain,37.3407509,-6.5390816
Calle Luis Morote,56,Las Palmas de Gran Canaria,Las Palmas,Canarias,35007,Spain,28.1413029,-15.4348576
Carrer de Sant Domènec,6,La Seu d'Urgell,Lleida,Catalunya,25700,Spain,42.358655,1.4619617
Calle Mayor,18,San Sebastián,Guipúzcoa,País Vasco,20003,Spain,43.3237078,-1.9864426
Diseminado son cardaix,459,Font de Sa Cala,Illes Balears,Illes Balears,7589,Spain,39.6853186,3.4529335
Rúa Fonsillón,59,Ourense,Ourense,,32005,Spain,42.3221092,-7.8730463
Av de Fernando Maestre Calzadilla,1,Badajoz,Badajoz,Extremadura,6004,Spain,38.8728436,-6.9726772
San Juan,1,Arties,Lleida,Catalunya,25599,Spain,42.7005847,0.8717109
Calle Camino del Lomo,225,Candeleda,Ávila,Castilla y León,5480,Spain,40.1151673,-5.2591751
Carretera de Plasencia,31,Galisteo,Cáceres,Extremadura,10691,Spain,39.9741219,-6.2655841
Rúa das Arcas,2,Monterroso,Lugo,,27560,Spain,42.7924047,-7.8318992
Plaça de l'Església,7,L'Espluga de Francolí,Tarragona,Catalunya,43440,Spain,41.3964554,1.1036245
Calle Camino de Frasco Llamas,11,Tabernas,Almería,Andalucía,4200,Spain,37.055385,-2.3872569
Calle Molino,1,Bello,Teruel,Aragón,44232,Spain,40.9234809,-1.4957785
San Pedro Kalea,4,Bergara,Gipuzkoa,Euskadi,20570,Spain,43.1166104,-2.4130151
Calle Iglesia,5,Brazatortas,Ciudad Real,Castilla-La Mancha,13450,Spain,38.6583585,-4.2922385
Calle Chelva,15,Higueruelas,Valencia,Comunidad Valenciana,46170,Spain,39.7886643,-0.8616095
Calle Ronda de la Sangre,22,Cadalso de los Vidrios,Madrid,Comunidad de Madrid,28640,Spain,40.3010559,-4.4390716
Calle Figones,4,Arévalo,Ávila,Castilla y León,5200,Spain,41.0637283,-4.7213316
Rúa Barrio do Campo,19,Silleda,Pontevedra,,36540,Spain,42.696084,-8.242018
Diseminado Camino Yesera,3,Murcia,Murcia,Región de Murcia,30163,Spain,38.0467009,-1.086764
Calle del Capataz Santiago Gómez Nogurón,19,Montealegre del Castillo,Albacete,Castilla-La Mancha,2650,Spain,38.785756,-1.3304346
Avenida de Emilio Romero,57,Arévalo,Ávila,Castilla y León,5200,Spain,41.054661,-4.7116126
Rúa Aro,9,Oleiros,A Coruña,,15178,Spain,43.3582354,-8.3415896
Calle Real,5,Colmenar del Arroyo,Madrid,Comunidad de Madrid,28213,Spain,40.4189295,-4.1984633
Passeig de Neptú,62,València,Valencia,Comunidad Valenciana,46011,Spain,39.4653125,-0.3232034
Calle Ramón García Argüelles,4,Langreo,Asturias,,33930,Spain,43.313731,-5.6915376
Calle Lobo,3,Orgaz,Toledo,Castilla-La Mancha,45450,Spain,39.6488569,-3.8754267
Calle Llanos,30,Bédar,Almería,Andalucía,4288,Spain,37.1923155,-1.9802958
Calle Infantes,3,Real Sitio de San Ildefonso,Segovia,Castilla y León,40100,Spain,40.9013589,-4.0076991
Av de la Constitución,22,Ciutadella de Menorca,Illes Balears,Illes Balears,7760,Spain,40.0027982,3.8411514
Carretera Baza,77,Guadix,Granada,Andalucía,18500,Spain,37.3186445,-3.1221842
Paseo Central,44,Roquetas de Mar,Almería,Andalucía,4740,Spain,36.7255835,-2.62923
Plaza Doctor Madrazo,15,Vega de Pas,Cantabria,Cantabria,39685,Spain,43.1583383,-3.7820152
Carrer de Ciutat,6,Puigpunyent,Illes Balears,Illes Balears,7194,Spain,39.6218963,2.5277045
Calle Real,14,Hontanas,Burgos,Castilla y León,9227,Spain,42.3127763,-4.0441205
Calle Condes de Montijo,38,Montijo,Badajoz,Extremadura,6480,Spain,38.9086457,-6.6204958
Avenida del Limonar,124,Marbella,Málaga,Andalucía,29604,Spain,36.4991931,-4.8151888
Rúa de Xosé Ferrero,16,Santa Comba,A Coruña,,15840,Spain,43.033219,-8.8078202
Carrer Primer de Maig,11,Benifallet,Tarragona,Catalunya,43512,Spain,40.9746502,0.5177924
Calle Ancha,6,Cáceres,Cáceres,Extremadura,10003,Spain,39.4725723,-6.3715467
Calle de la Estrella,7,Torrelaguna,Madrid,Comunidad de Madrid,28180,Spain,40.8284723,-3.538568
Travesía de Babia,32,Villaseca de Laciana,León,Castilla y León,24140,Spain,42.9428698,-6.2472399
Carrer Major,1,Calbinyà,Lleida,Catalunya,25798,Spain,42.3780637,1.4671044
Plaza de la Venta,1,Iznájar,Córdoba,Andalucía,14970,Spain,37.2567884,-4.3039547
Calle Río Jarama,15,Toledo,Toledo,Castilla-La Mancha,45007,Spain,39.8666128,-3.9673525
Calle Vereda,3477,Vegalatrave,Zamora,Castilla y León,49542,Spain,41.7000779,-6.1058965
Calle Alcázar,2,Mocejón,Toledo,Castilla-La Mancha,45270,Spain,39.9397063,-3.9176365
Calle del Seis de Junio,197,Valdepeñas,Ciudad Real,Castilla-La Mancha,13300,Spain,38.754979,-3.3887387
N-521,100,Cáceres,Cáceres,Extremadura,10005,Spain,39.4620126,-6.4325181
Calle Constitución,15,Valdepeñas,Ciudad Real,Castilla-La Mancha,13300,Spain,38.760294,-3.390517
Calle Viajero,1,Venta del Pobre,Almería,Andalucía,4114,Spain,36.9922825,-2.0677303
Calle Glorieta,2,Ohanes,Almería,Andalucía,4459,Spain,37.0391381,-2.7456386
Avinguda Jaume I,16,Inca,Illes Balears,Illes Balears,7300,Spain,39.7193498,2.9166905
Avinguda Lluís Companys,25,Benifallet,Tarragona,Catalunya,43512,Spain,40.9736451,0.5165006
Rúa Rosalía de Castro,16,Negreira,A Coruña,,15830,Spain,42.912407,-8.7358175
Calle Ramón García Argüelles,4,Langreo,Asturias,,33930,Spain,43.313731,-5.6915376
Carrer de sa Tanqueta,1,Randa,Illes Balears,Illes Balears,7629,Spain,39.526432,2.9157148
Plaza España,6,Grazalema,Cádiz,Andalucía,11610,Spain,36.7579881,-5.3652854
Calle las Cruces,17,Utiel,Valencia,Comunidad Valenciana,46300,Spain,39.568892,-1.202492
Avenida Galicia,5,Cacabelos,León,Castilla y León,24540,Spain,42.5990531,-6.7265983
Carrer de Sant Pere,11,Ciutadella de Menorca,Illes Balears,Illes Balears,7760,Spain,40.0021324,3.8396277
AP-1,36,Km,Burgos,Castilla y León,9240,Spain,42.5263612,-3.3334727
Avenida de la Estación,9,Montijo,Badajoz,Extremadura,6480,Spain,38.9112474,-6.607159
Plaza Santa Casilda,5,Briviesca,Burgos,Castilla y León,9240,Spain,42.5521894,-3.3249618
Carrer de l'Era,14,Vilaplana,Tarragona,Catalunya,43380,Spain,41.22755,1.03302
Avenida de Emilio Romero,57,Arévalo,Ávila,Castilla y León,5200,Spain,41.054661,-4.7116126
Plaza Cervantes,13,Badajoz,Badajoz,Extremadura,6001,Spain,38.8776841,-6.9671141
Camino Baño de las Mulas,34,Ossa de Montiel,Albacete,Castilla-La Mancha,2611,Spain,38.9250483,-2.8328097
Calle Progreso,64,Bargas,Toledo,Castilla-La Mancha,45593,Spain,39.9389531,-4.0238882
Avenida de la Coronación,10,Bollullos Par del Condado,Huelva,Andalucía,21710,Spain,37.3407509,-6.5390816
Autovía del Suroeste,85,Santa Olalla,Toledo,Castilla-La Mancha,45530,Spain,40.0222434,-4.4877901
Plaza Mayor,6,Alcañices,Zamora,Castilla y León,49500,Spain,41.6988953,-6.3472424
Plaza de España,6,Villanueva de la Serena,Badajoz,Extremadura,6700,Spain,38.9741722,-5.8001901
C/ Adolfo Suárez,141,Puerto Lumbreras,Murcia,Región de Murcia,30890,Spain,37.5748105,-1.7952155
Calle Bartolomé Esteban,10,Teruel,Teruel,Aragón,44001,Spain,40.3424042,-1.1054577
c/ Carrobierzo,28,Jiménez de Jamuz,León,Castilla y León,24767,Spain,42.2713503,-5.933386
Mercadillo Auzoa,6,Mercadillo,Bizkaia,Euskadi,48190,Spain,43.2692418,-3.1536857
Calle Lobo,3,Orgaz,Toledo,Castilla-La Mancha,45450,Spain,39.6488569,-3.8754267
Calle del Doctor Marañón,5,Jaca,Huesca,Aragón,22700,Spain,42.58102,-0.534714
Calle Real,190,El Burgo de Osma,Soria,Castilla y León,42300,Spain,41.5857481,-3.0802232
Avinguda Sra. Magdalena Martorell,65,Les Borges del Camp,Tarragona,Cataluña,43350,Spain,41.1717094,1.0213134
Avenida de Lugo,58,Taboada,Lugo,,27550,Spain,42.7175132,-7.76331
Calle Matadero,41,Ponferrada,León,Castilla y León,24415,Spain,42.5407544,-6.6033226
Rúa Garrucha,6,Porto de Santa Cruz,A Coruña,,15179,Spain,43.3494173,-8.346186
Camí des Cementírí,343,Lloret de Vistalegre,Illes Balears,Illes Balears,7518,Spain,39.6148316,2.9664541
Avenida de Arcos,84,Villamartin,Cádiz,Andalucía,11650,Spain,36.8561407,-5.6533094
Plaza de España,3,Colmenar del Arroyo,Madrid,Comunidad de Madrid,28213,Spain,40.4185317,-4.1983881
Calle a Pp-1,6,Vinaròs,Castellón,Comunidad Valenciana,12500,Spain,40.4553504,0.4536492
Calle Navalpino,6,Piedrabuena,Ciudad Real,Castilla-La Mancha,13100,Spain,39.033139,-4.1823615
Carrer del Mar,8,Sa Riera,Girona,Catalunya,17255,Spain,41.9719336,3.2112861
Avenida de Viñuelas,17,Tres Cantos,Madrid,Comunidad de Madrid,28760,Spain,40.5962312,-3.705407
Calle Andrés Sánchez de Alva,8,El Cuervo,Sevilla,Andalucía,41749,Spain,36.8518663,-6.0409894
Praza do Concello,6,Salceda de Caselas,Pontevedra,,36470,Spain,42.1021138,-8.5583456
Calle Hoz,3,Cazorla,Jaén,Andalucía,23470,Spain,37.9081764,-2.9998951
Carretera d'Argentona,3,Cabrera de Mar,Barcelona,Catalunya,8349,Spain,41.5157413,2.3955502
Calle Cardenal Reig,15,Ocaña,Toledo,Castilla-La Mancha,45300,Spain,39.9620631,-3.4911907
Calle Baja,6,La Puebla de Roda,Huesca,Aragón,22482,Spain,42.302807,0.5417387
Carrer del Rosari,12,Maó,Illes Balears,Illes Balears,7701,Spain,39.8895328,4.2639016
Calle General Campomanes,18,Villaviciosa,Asturias,,33300,Spain,43.4794194,-5.4336162
Calle Navarra,57,Lillo,Toledo,Castilla-La Mancha,45870,Spain,39.7295479,-3.3080833
Lugar Outeiro,17,Meaño,Pontevedra,,36638,Spain,42.4760659,-8.7772344
Carrer de Zamora,78,Barcelona,Barcelona,Catalunya,8018,Spain,41.3958581,2.1902418
Carrer Bogatell,3,La Secuita,Tarragona,Catalunya,43765,Spain,41.2051318,1.2828452
Carretera d'Artesa de Segre,3,Montblanc,Tarragona,Catalunya,43400,Spain,41.3818206,1.1612195
Plaza Ppi-2,81,Puente Genil,Córdoba,Andalucía,14500,Spain,37.4011111,-4.7483333
Vía de las Dos Castillas,23,Pozuelo de Alarcón,Madrid,Comunidad de Madrid,28224,Spain,40.4367126,-3.7938211
C/Justino de Azcárate,1,León,León,Castilla y León,24008,Spain,42.6356345,-5.6011803
Passeig de la Glorieta,5,Algímia d'Alfara,Valencia,Comunidad Valenciana,46148,Spain,39.7509894,-0.3640738
Carrer de Ciutat,6,Puigpunyent,Illes Balears,Illes Balears,7194,Spain,39.6218963,2.5277045
Calle Iglesia,24,Jauja,Córdoba,Andalucía,14911,Spain,37.3030123,-4.6564586
Carrer de Santa Teresa,3,Begur,Girona,Catalunya,17255,Spain,41.9550151,3.2064311
Carrèr Marrèc,14,Vielha,Lérida,Cataluña,25530,Spain,42.7017562,0.7940175
Paseo Central,44,Roquetas de Mar,Almería,Andalucía,4740,Spain,36.7255835,-2.62923
Calle Diseminados,77,La Gineta,Albacete,Castilla-La Mancha,2110,Spain,39.1354876,-2.0392959
Calle San Felipe Neri,3,Alcalá de Henares,Madrid,Comunidad de Madrid,28801,Spain,40.4812276,-3.3689333
Calle de la Victoria,8,Trujillo,Cáceres,Extremadura,10200,Spain,39.460317,-5.8838999
Calle Alcalde Fernando Tejero,11,Alcaudete,Jaén,Andalucía,23660,Spain,37.5876514,-4.082737
Rua Trasdeza,35,Silleda,Pontevedra,,36540,Spain,42.6987533,-8.2488489
Poligono Diecisiete,3,Escurial,Cáceres,Extremadura,10133,Spain,39.1725487,-5.8969099
Avenida Anaitasuna,7,Mutilva Baja,Navarra,Navarra,31192,Spain,42.7930693,-1.6151965
Plaza Castillo de Irulegui Enparantza,9,Mutilva Baja,Navarra,Navarra,31192,Spain,42.7923429,-1.6149388
Carretera Valencia,66,Motilla del Palancar,Cuenca,Castilla-La Mancha,16200,Spain,39.5604286,-1.9061708
Calle Ramón Alfonso,19,La Puebla de Alfindén,Zaragoza,Aragón,50171,Spain,41.6347437,-0.7508441
Avinguda de Catalunya,132,Cervera,Lérida,Cataluña,25200,Spain,41.6710265,1.2692904
Carrer Montseny,15,Tavèrnoles,Barcelona,Catalunya,8519,Spain,41.9539022,2.3267989
Carretera Fuente Álamo,3,Corvera,Murcia,Región de Murcia,30153,Spain,37.832756,-1.1538753
Paseo José Fernández Vega,27,Brenes,Sevilla,Andalucía,41310,Spain,37.5470043,-5.8698838
Paseo de España,30,Jaén,Jaén,Andalucía,23009,Spain,37.7871126,-3.7899408
Calle Juan Ramón Jiménez,45,Los Palacios y Villafranca,Sevilla,Andalucía,41720,Spain,37.1624913,-5.9247044
Calle Almeria,8,Villaviciosa de Córdoba,Córdoba,Andalucía,14300,Spain,38.0736882,-5.0181567
Terienzu,15,Selorio,Asturias,,33316,Spain,43.5168074,-5.3673819
Plaza Santa Orosia,3,Yebra de Basa,Huesca,Aragón,22610,Spain,42.4860311,-0.2834974
Santiso,55,El Pino,La Coruña,,15821,Spain,42.9147,-8.4134658
Calle de Blas Infante,52,Rute,Córdoba,Andalucía,14960,Spain,37.3242766,-4.371384
Carretera Burgohondo,17,Ávila,Ávila,Castilla y León,5002,Spain,40.6434536,-4.7054802
Carrer Mestral,19,Balaguer,Lleida,Catalunya,25600,Spain,41.775309,0.818606
Calle la Presa,1,Molinaseca,León,Castilla y León,24413,Spain,42.537511,-6.518926
Calle las Cañadas,27,La Palma del Condado,Huelva,Andalucía,21700,Spain,37.3848155,-6.5453397
Travesia Laciana,13,Villaseca de Laciana,León,Castilla y León,24140,Spain,42.9439008,-6.2532478
Rúa de Suárez Vence,4,Santa Comba,A Coruña,,15840,Spain,43.0336002,-8.808833
Avenida del Moncayo,2,San Sebastián de los Reyes,Madrid,Comunidad de Madrid,28703,Spain,40.5553014,-3.6144786
Carrer del Pintor Guàrdia,6,Manlleu,Barcelona,Catalunya,8560,Spain,42.004823,2.285371
Praza Pocomaco Cl 2,13,Polígono de Pocomaco,A Coruña,,15190,Spain,43.3284721,-8.4342296
Calle de Rafael Botí,4,Madrid,Madrid,Comunidad de Madrid,28023,Spain,40.4632204,-3.8032207
Carrer del Professor Beltrán Báguena,2,València,Valencia,Comunidad Valenciana,46009,Spain,39.480233,-0.388519
Calle Poeta García Lorca,5,Puente Genil,Córdoba,Andalucía,14500,Spain,37.3917565,-4.7684078
Carrer Major,62,Vilaplana,Tarragona,Catalunya,43380,Spain,41.2265976,1.0335245
Carretera la Bañeza,17,Ribaseca,León,Castilla y León,24391,Spain,42.535542,-5.5915678
Mendiondo Auzoa,4,Mendiondo,Bizkaia,Euskadi,48610,Spain,43.3679868,-2.9427673
Calle Romero,1,Córdoba,Córdoba,Andalucía,14003,Spain,37.87972,-4.78131
Passeig de la Glorieta,9,Algímia d'Alfara,Valencia,Comunidad Valenciana,46148,Spain,39.7515082,-0.3659527
Avenida Libertad,161,Hellín,Albacete,Castilla-La Mancha,2400,Spain,38.5257214,-1.7033073
Lugar Vilariño,20,Forcarei,Pontevedra,,36556,Spain,42.550935,-8.2839875
Calle Camino de Catral,33,Almoradí,Alicante,Comunidad Valenciana,3160,Spain,38.11667,-0.79715
Rúa San Juan,17,Sobrado do Bispo,Ourense,,32890,Spain,42.2905258,-7.9059889
Rua Concepción Arenal,10,A Coruña,A Coruña,,15006,Spain,43.3576765,-8.4032324
Rúa Picavia,2,A Coruña,A Coruña,,15004,Spain,43.3651857,-8.4055485
Carrer del Comerç,14,Moià,Barcelona,Catalunya,8180,Spain,41.81172,2.09671
Calle Solanar,12,Used,Zaragoza,Aragón,50374,Spain,41.0550955,-1.5605409
Calle Nueva,9,Alosno,Huelva,Andalucía,21520,Spain,37.548929,-7.1147446
Calle Bartolomé Esteban,10,Teruel,Teruel,Aragón,44001,Spain,40.3424042,-1.1054577
Paseo Central,44,Roquetas de Mar,Almería,Andalucía,4740,Spain,36.7255835,-2.62923
Calle San Martín,3,Briviesca,Burgos,Castilla y León,9240,Spain,42.5511429,-3.3242132
Avenida Coruña,2,Arteixo,La Coruña,,15142,Spain,43.3401823,-8.4444728
Plaza de la Venta,1,Iznájar,Córdoba,Andalucía,14970,Spain,37.2567884,-4.3039547
Calle las Minas,1,Magán,Toledo,Castilla-La Mancha,45590,Spain,39.9590758,-3.935928
Travesia Laciana,13,Villaseca de Laciana,León,Castilla y León,24140,Spain,42.9439008,-6.2532478
La Bien Aparecida,11,Ampuero,Cantabria,Cantabria,39849,Spain,43.3264644,-3.4531231
Calle las Cañadas,27,La Palma del Condado,Huelva,Andalucía,21700,Spain,37.3848155,-6.5453397
Avenida Olaz,8,Egüés,Navarra,Navarra,31620,Spain,42.8164946,-1.5892055
Avenida de Castuera,4,Campanario,Badajoz,Extremadura,6460,Spain,38.8595308,-5.6242183
Carrer de la Corretgeria,37,València,Valencia,Comunidad Valenciana,46001,Spain,39.4752898,-0.3771125
Calle Carretera,0,Navarrés,Valencia,Comunidad Valenciana,46823,Spain,39.0766284,-0.7046492
Nueva,4,Huéscar,Granada,Andalucía,18830,Spain,37.8095,-2.5394022
Calle Costanilla,13,Puebla de Sanabria,Zamora,Castilla y León,49300,Spain,42.0528519,-6.6334756
Calle Andrés Sánchez de Alva,8,El Cuervo,Sevilla,Andalucía,41749,Spain,36.8518663,-6.0409894
Partida Rampudeta,0,Parcent,Alicante,Comunidad Valenciana,3792,Spain,38.7376967,-0.0752763
Carrer de Sant Domènec,6,La Seu d'Urgell,Lleida,Catalunya,25700,Spain,42.358655,1.4619617
Calle Iglesia,24,Jauja,Córdoba,Andalucía,14911,Spain,37.3030123,-4.6564586
Passeig de l'Estació,43,Balaguer,Lleida,Catalunya,25600,Spain,41.7890665,0.8129758
Passeig de Neptú,62,València,Valencia,Comunidad Valenciana,46011,Spain,39.4653125,-0.3232034
Calle Fransisco-Ortuño,1,Vilaflor,Santa Cruz de Tenerife,Canarias,38613,Spain,28.1586824,-16.636552
Avinguda de Catalunya,56,Gironella,Barcelona,Catalunya,8680,Spain,42.0337657,1.8803546
Avenida Principal,116,Las Navas del Marqués,Ávila,Castilla y León,5230,Spain,40.6027793,-4.3336191
Avinguda de Crevillent,22,Elx,Alicante,Comunidad Valenciana,3293,Spain,38.2613773,-0.7223737
Calle Ramón J. Sender,8,Alcañiz,Teruel,Aragón,44600,Spain,41.0522207,-0.1288131
OU-536,123,Castadón,Ourense,,32710,Spain,42.3453503,-7.8137063
Plaza de Calvo Sotelo,2,Navas del Rey,Madrid,Comunidad de Madrid,28695,Spain,40.3849336,-4.2512281
Camino Pinos,5,Loja,Granada,Andalucía,18300,Spain,37.1626212,-4.15112
Calle Rey Juan Carlos I,29,Santa María de la Alameda,Madrid,Comunidad de Madrid,28296,Spain,40.5971907,-4.2593597
Travesía de Babia,32,Villaseca de Laciana,León,Castilla y León,24140,Spain,42.9428698,-6.2472399
Carrer d'en Jaume Armengol,4,Inca,Illes Balears,Illes Balears,7300,Spain,39.7206449,2.9087381
Avenida de Cuba,87,Badolatosa,Sevilla,Andalucía,41570,Spain,37.30762,-4.6743
Avenida del Ebro,1,El Burgo de Ebro,Zaragoza,Aragón,50730,Spain,41.5600848,-0.720031
Carrer del Rector Vives,14,Palma,Illes Balears,Illes Balears,7015,Spain,39.5660727,2.6002683
N-521,100,Cáceres,Cáceres,Extremadura,10005,Spain,39.4620126,-6.4325181
Plaza de la Constitución,6,Guisando,Ávila,Castilla y León,5417,Spain,40.2224038,-5.1407401
Calle Bardenas Reales,5,Sarriguren,Navarra,Navarra,31621,Spain,42.8106594,-1.5985096
Estrada de Pontevedra-Ourense,36,Soutelo de Montes,Pontevedra,,36560,Spain,42.5365313,-8.3048618
Calle del Seis de Junio,197,Valdepeñas,Ciudad Real,Castilla-La Mancha,13300,Spain,38.754979,-3.3887387
Plaza Cervantes,13,Badajoz,Badajoz,Extremadura,6001,Spain,38.8776841,-6.9671141
Calle San José,2,Hondón de las Nieves,Alicante,Comunidad Valenciana,3688,Spain,38.3087112,-0.8552284
Carrer de Ciutat,6,Puigpunyent,Illes Balears,Illes Balears,7194,Spain,39.6218963,2.5277045
Calle Constitución,15,Valdepeñas,Ciudad Real,Castilla-La Mancha,13300,Spain,38.760294,-3.390517
Calle Candelaria,6,Santa Cruz de Tenerife,Santa Cruz de Tenerife,Canarias,38003,Spain,28.4650619,-16.2491323
Carretera Baza,77,Guadix,Granada,Andalucía,18500,Spain,37.3186445,-3.1221842
Rúa Concepción Arenal,21,Oleiros,A Coruña,,15179,Spain,43.3454292,-8.3455008
Avinguda Rei Juan Carlos I,51,Xaló,Alicante,Comunidad Valenciana,3727,Spain,38.7435174,-0.016745
Carrer Bogatell,3,La Secuita,Tarragona,Catalunya,43765,Spain,41.2051318,1.2828452
Plaza Escultor Víctor Hino,28,Azuébar,Castellón,Comunidad Valenciana,12490,Spain,39.8331359,-0.3685459
Calle Antonio Maura,5,Utiel,Valencia,Comunidad Valenciana,46300,Spain,39.5666714,-1.2073825
N-III,48,Utiel,Valencia,Comunidad Valenciana,46300,Spain,39.5628589,-1.196926
Rúa Ricardo Cubeiro,4,Oleiros,A Coruña,,15179,Spain,43.3467442,-8.3474153
Plaza Doctor Madrazo,15,Vega de Pas,Cantabria,Cantabria,39685,Spain,43.1583383,-3.7820152
Calle Iglesia,5,Brazatortas,Ciudad Real,Castilla-La Mancha,13450,Spain,38.6583585,-4.2922385
C/ Adolfo Suárez,141,Puerto Lumbreras,Murcia,Región de Murcia,30890,Spain,37.5748105,-1.7952155
Rúa Fonsillón,59,Ourense,Ourense,,32005,Spain,42.3221092,-7.8730463
Plaza de la Independencia Local,7-2,Cardeña,Córdoba,Andalucía,14445,Spain,38.2707418,-4.3236022
Plaça de Sant Miquel,5,Amer,Girona,Catalunya,17170,Spain,42.0084204,2.6023903
Calle General Campomanes,18,Villaviciosa,Asturias,,33300,Spain,43.4794194,-5.4336162
Calle Colón,9,La Romana,Alicante,Comunidad Valenciana,3669,Spain,38.3666311,-0.8998639
Calle la Presa,1,Molinaseca,León,Castilla y León,24413,Spain,42.537511,-6.518926
Avenida de Alcoy,21,Castell de Castells,Alicante,Comunidad Valenciana,3793,Spain,38.7221059,-0.1956999
Calle Figones,4,Arévalo,Ávila,Castilla y León,5200,Spain,41.0637283,-4.7213316
Avenida Valladolid,106,Soria,Soria,Castilla y León,42005,Spain,41.7702884,-2.4940873
Calle del Parador,12,Molina de Aragón,Guadalajara,Castilla-La Mancha,19300,Spain,40.8441758,-1.8927642
Calle San Felipe Neri,3,Alcalá de Henares,Madrid,Comunidad de Madrid,28801,Spain,40.4812276,-3.3689333
Calle Mayor,11,Almoradí,Alicante,Comunidad Valenciana,3160,Spain,38.1085679,-0.7928026
Calle Navalpino,6,Piedrabuena,Ciudad Real,Castilla-La Mancha,13100,Spain,39.033139,-4.1823615
Rúa da Cachurra,27,Negreira,A Coruña,,15830,Spain,42.9106027,-8.7370781
Avenida Coruña,3,Arteixo,La Coruña,,15008,Spain,43.3403239,-8.4453439
Calle de la Victoria,8,Trujillo,Cáceres,Extremadura,10200,Spain,39.460317,-5.8838999
Calle Salamanca,5,Sancti-Spíritus,Salamanca,Castilla y León,37470,Spain,40.7055688,-6.4030345
Avinguda de Catalunya,132,Cervera,Lérida,Cataluña,25200,Spain,41.6710265,1.2692904
Calle Inocente Hervás,29,Torralba de Calatrava,Ciudad Real,Castilla-La Mancha,13160,Spain,39.0191038,-3.7516104
Carrer de la Font F,14,Masmolets,Tarragona,Catalunya,43813,Spain,41.3161582,1.2369313
Carretera de Ávila,4,San Martín de Valdeiglesias,Madrid,Comunidad de Madrid,28680,Spain,40.3611018,-4.4030717
Calle Panaderos,32,Granada,Granada,Andalucía,18010,Spain,37.182424,-3.591649
Calle Mayor,18,San Sebastián,Guipúzcoa,País Vasco,20003,Spain,43.3237078,-1.9864426
Carrer de Palma,185,Montuïri,Illes Balears,Illes Balears,7230,Spain,39.5636569,2.9749719
Avinguda Jaume I,16,Inca,Illes Balears,Illes Balears,7300,Spain,39.7193498,2.9166905
Plaça Major,1,Algar de Palància,Valencia,Comunidad Valenciana,46593,Spain,39.7811961,-0.367778
Carrer Barcelona,483,Girona,Girona,Catalunya,17005,Spain,41.9500938,2.8064932
Calle Puente,36,Aguilar de Campoo,Palencia,Castilla y León,34800,Spain,42.7928895,-4.2649383
Carrer Pare Claret,3,Fondó dels Frares,Alicante,Comunidad Valenciana,3689,Spain,38.2736244,-0.9269027
Avinguda Sra. Magdalena Martorell,4,Les Borges del Camp,Tarragona,Cataluña,43350,Spain,41.1752249,1.0187548
Camí des Cementírí,343,Lloret de Vistalegre,Illes Balears,Illes Balears,7518,Spain,39.6148316,2.9664541
Calle Manuel Álvarez Miranda,13,Villaviciosa,Asturias,,33300,Spain,43.4817014,-5.4314675
Kale Nagusia Kalea,12,Beasain,Gipuzkoa,Euskadi,20200,Spain,43.0470829,-2.1958058
Avinguda Sant Antoni de Padua,23,Foia d'Elx,Alicante,Comunidad Valenciana,3294,Spain,38.213057,-0.6836257
Calle del Mediodía,3,Torrejón de Velasco,Madrid,Comunidad de Madrid,28990,Spain,40.1873805,-3.7753152
Rúa Ricardo Cubeiro,4,Oleiros,A Coruña,,15179,Spain,43.3467442,-8.3474153
Calle Candelaria,6,Santa Cruz de Tenerife,Santa Cruz de Tenerife,Canarias,38003,Spain,28.4650619,-16.2491323
Rúa Eduardo Blanco Amor,6,Porto de Santa Cruz,A Coruña,,15179,Spain,43.3485624,-8.3445126
Avinguda Tecla Sala,42,Roda de Ter,Barcelona,Catalunya,8510,Spain,41.9869124,2.3123316
Travesía Zarza la Mayor,0,Ceclavín,Cáceres,Extremadura,10870,Spain,39.8419799,-6.808649
Calle San José,2,Hondón de las Nieves,Alicante,Comunidad Valenciana,3688,Spain,38.3087112,-0.8552284
Calle Gómez Becerra,2,Cáceres,Cáceres,Extremadura,10001,Spain,39.4698755,-6.3792663
Calle Mayor,4,Torrelaguna,Madrid,Comunidad de Madrid,28180,Spain,40.8260617,-3.5381941
C/Única,1,Aineto,Huesca,Aragón,22623,Spain,42.3923326,-0.1942251
Carrer Països Catalans,13-15,Rubí,Barcelona,Catalunya,8191,Spain,41.4800687,2.0369207
Plaza Doctor Madrazo,15,Vega de Pas,Cantabria,Cantabria,39685,Spain,43.1583383,-3.7820152
Carrer de l'Era,14,Vilaplana,Tarragona,Catalunya,43380,Spain,41.22755,1.03302
Calle San Isidro,4,Villacedré,León,Castilla y León,24009,Spain,42.5639011,-5.5863574
Calle Cruz de Orea,51,Cazorla,Jaén,Andalucía,23470,Spain,37.9117133,-3.0046467
Carretera Burgos Santander,20,Sotopalacios,Burgos,Castilla y León,9140,Spain,42.4338729,-3.6820215
Camino Gálvez,6,Murcia,Murcia,Región de Murcia,30570,Spain,37.981783,-1.0914827
TF-235,131,La Laguna,Santa Cruz de Tenerife,Canarias,38297,Spain,28.4901313,-16.3665752
Lugar Barrio Erdigune,1,Maruri,Vizcaya,País Vasco,48112,Spain,43.3805556,-2.8683333
Calle Don Miguel Robledo Carrasco,24,Valverde del Fresno,Cáceres,Extremadura,10890,Spain,40.2159855,-6.8711214
Carretera Baza,77,Guadix,Granada,Andalucía,18500,Spain,37.3186445,-3.1221842
Avenida de Castilla,2,Colmenar de Oreja,Madrid,Comunidad de Madrid,28380,Spain,40.0776823,-3.48686
Avenida de Portugal,28,Zamora,Zamora,Castilla y León,49016,Spain,41.5049191,-5.7400189
Carretera Valencia,46,Motilla del Palancar,Cuenca,Castilla-La Mancha,16200,Spain,39.5624457,-1.9083931
Calle Bodega Salas,1-3,La Palma del Condado,Huelva,Andalucía,21700,Spain,37.3619033,-6.5413446
Avenida Coruña,3,Arteixo,La Coruña,,15008,Spain,43.3403239,-8.4453439
Calle Molino,9,Jatiel,Teruel,Aragón,44592,Spain,41.2185972,-0.380812
Plaza Andalucía,9,Aldea Quintana,Córdoba,Andalucía,14191,Spain,37.7119199,-4.8673756
Avenida 28 de Febrero,1,Albox,Almería,Andalucía,4800,Spain,37.3800278,-2.1354401
Avenida de Emilio Romero,55,Arévalo,Ávila,Castilla y León,5200,Spain,41.0547805,-4.7118019
Calle Arrabal,26,Puebla de Sanabria,Zamora,Castilla y León,49300,Spain,42.0518132,-6.6334067
Avenida Castilla,21,Cheste,Valencia,Comunidad Valenciana,46380,Spain,39.4921074,-0.6838931
Passeig de l'Esglèsia,2,Begues,Barcelona,Catalunya,8859,Spain,41.3309758,1.9226093
Calle Matilde Tagle Ortiz,24,Badajoz,Badajoz,Extremadura,6006,Spain,38.8808978,-7.0083141
Avenida Primero de Mayo,38,Parque Holandés,Las Palmas,Canarias,35649,Spain,28.6037053,-13.838336
Calle Diseminados,1066,Aranda de Duero,Burgos,Castilla y León,9400,Spain,41.6774473,-3.6913499
Calle la Rambla,18,Pinzón,Sevilla,Andalucía,41728,Spain,37.1104763,-6.0183193
Adolfo Urioste Kalea,1,Gernika-Lumo,Bizkaia,Euskadi,48300,Spain,43.3148346,-2.6769444
Avenida Monegros,0,Sariñena,Huesca,Aragón,22200,Spain,41.789008,-0.1617293
Carrer Antoni Guix i Ribelles,25,Lleida,Lleida,Catalunya,25191,Spain,41.611003,0.66182
Calle Lejalde,27,Fitero,Navarra,Navarra,31593,Spain,42.0557857,-1.8602233
Carrer Mestral,19,Balaguer,Lleida,Catalunya,25600,Spain,41.775309,0.818606
Plaza Mayor,1,Lerma,Burgos,Castilla y León,9340,Spain,42.0261111,-3.7553222
Avenida Coruña,2,Arteixo,La Coruña,,15142,Spain,43.3401823,-8.4444728
Calle los Limoneros,43,Puerto Lumbreras,Murcia,Región de Murcia,30890,Spain,37.5666047,-1.7967279
Calle del Bolillero,43,Tres Cantos,Madrid,Comunidad de Madrid,28760,Spain,40.5951176,-3.7034041
Avenida de la Constitución,22,Algodonales,Cádiz,Andalucía,11680,Spain,36.8809588,-5.4060107
Calle Real,9,Robledo de Caldas,León,Castilla y León,24146,Spain,42.937451,-5.9127621
Carrer de Can Escursac,12,Palma,Illes Balears,Illes Balears,7001,Spain,39.5709057,2.6509374
Carretera la Bañeza,17,Ribaseca,León,Castilla y León,24391,Spain,42.535542,-5.5915678
Andalucía Plaza,8,Sierra Nevada,Granada,Andalucía,18196,Spain,37.0940394,-3.4010733
Carretera Barcelona,14,Villafranca de Ebro,Zaragoza,Aragón,50174,Spain,41.5764079,-0.6453322
Calle Cutu La Piedra,3,Langreo,Asturias,,33930,Spain,43.3175348,-5.6932635
Avenida de la Constitución,32,Algodonales,Cádiz,Andalucía,11680,Spain,36.88091,-5.40644
Calle de Eduardo Dato,4,Zaragoza,Zaragoza,Aragón,50005,Spain,41.6457424,-0.8898989
Calle la Iglesia,2,Villanueva de la Condesa,Valladolid,Castilla y León,47608,Spain,42.1486334,-5.0944626
Avenida Don Antonio Huertas,47,Tomelloso,Ciudad Real,Castilla-La Mancha,13700,Spain,39.148862,-3.021704
Calle Augusto Echeverría,28,Mendavia,Navarra,Navarra,31587,Spain,42.4436111,-2.1994444
Calle Virgen Loreto,3,Bejís,Castellón,Comunidad Valenciana,12430,Spain,39.9099551,-0.7076097
Rua Trasdeza,35,Silleda,Pontevedra,,36540,Spain,42.6987533,-8.2488489
Calle Campana,5,Sevilla,Sevilla,Andalucía,41004,Spain,37.3925273,-5.9950689
AP-2,48,Km,Zaragoza,Aragón,50750,Spain,41.526161,-0.3967808
Calle Castilla-la Mancha,1,Hellín,Albacete,Castilla-La Mancha,2400,Spain,38.506503,-1.6979439
Plaza Pedro de Valencia,7,Montijo,Badajoz,Extremadura,6480,Spain,38.9090144,-6.6163654
Calle Pastor Juan de Rivas,15,Andújar,Jaén,Andalucía,23740,Spain,38.0445581,-4.0416412
Passatge de Rovira i Virgili,1,Sabadell,Barcelona,Catalunya,8205,Spain,41.5285784,2.1035005
Calle Cervantes,17-23,Piornal,Cáceres,Extremadura,10615,Spain,40.1182673,-5.8486214
Calle Santa Agueda,32,Arguineguín,Las Palmas,Canarias,35120,Spain,27.7525102,-15.6719971
Calle de las Palomas,49,Fuente Obejuna,Córdoba,Andalucía,14290,Spain,38.262917,-5.4182902
Calle Huerta de Leonor,2,Cambil,Jaén,Andalucía,23120,Spain,37.6781082,-3.5648512
Avenida del Acebo,3,Cangas del Narcea,Asturias,,33800,Spain,43.1771712,-6.5488212
Erdigunea Gunea,22,Albiztur,Gipuzkoa,Euskadi,20495,Spain,43.1297955,-2.1371081
N-630,10,Cáceres,Cáceres,Extremadura,10001,Spain,39.494678,-6.4185771
Plaza de la Merced,20,Málaga,Málaga,Andalucía,29012,Spain,36.7235999,-4.4169933
N-III,77,Tarancón,Cuenca,Castilla-La Mancha,16400,Spain,40.0318407,-3.0430293
Calle Empedrada,4,San Martín de Pusa,Toledo,Castilla-La Mancha,45170,Spain,39.7829357,-4.6314146
Calle Mayor,12,Ocaña,Toledo,Castilla-La Mancha,45300,Spain,39.9588877,-3.4998309
Calle Nao,13,El Rompido,Huelva,Andalucía,21459,Spain,37.2174798,-7.1248349
Carrer del Comerç,14,Moià,Barcelona,Catalunya,8180,Spain,41.81172,2.09671
Carrer Mare de Déu de les Neus,6,Sabadell,Barcelona,Catalunya,8202,Spain,41.5505361,2.1077053
Calle de La Carrilona,15,Soto del Barco,Asturias,,33126,Spain,43.5282371,-6.0696953
Calle San Benito,1,Villanueva de la Serena,Badajoz,Extremadura,6700,Spain,38.9738365,-5.8011603
Calle del Pez,36,Madrid,Madrid,Comunidad de Madrid,28004,Spain,40.4242754,-3.7065235
CL NUESTRA SEÑORA DEL CARMEN,4,Cazalla de la Sierra,Sevilla,Andalucía,41370,Spain,37.9358303,-5.7596972
Avenida Primero de Mayo,21,Parque Holandés,Las Palmas,Canarias,35649,Spain,28.6040682,-13.8364044
Rúa Picavia,2,A Coruña,A Coruña,,15004,Spain,43.3651857,-8.4055485
Rúa Concepción Arenal,21,Oleiros,A Coruña,,15179,Spain,43.3454292,-8.3455008
Calle Diseminados,77,La Gineta,Albacete,Castilla-La Mancha,2110,Spain,39.1354876,-2.0392959
Carrer els Alçamora,44,Alcoi,Alicante,Comunidad Valenciana,3802,Spain,38.6975152,-0.4804722
Vereda Catalán,39,Murcia,Murcia,Región de Murcia,30162,Spain,38.028923,-1.0589663
Carrer de l'Estació,1,Sineu,Illes Balears,Illes Balears,7510,Spain,39.6431522,3.0141934
Avenida Marín Lázaro,11,Utiel,Valencia,Comunidad Valenciana,46300,Spain,39.5716679,-1.2063532
Carrer Sa Travessia,32,Puigpunyent,Illes Balears,Illes Balears,7194,Spain,39.6232799,2.5275847
Calle Cristóbal Castillo,38,Puente Genil,Córdoba,Andalucía,14500,Spain,37.3880253,-4.7686373
CA-263,6,Vega de Pas,Cantabria,Cantabria,39685,Spain,43.1558354,-3.7834411
Carretera Puerto la Ragua,30,Laroles,Granada,Andalucía,18494,Spain,37.0108614,-3.0108815
Carrer de l'Era,14,Vilaplana,Tarragona,Catalunya,43380,Spain,41.22755,1.03302
Ronda de la Comunicación,5,Madrid,Madrid,Comunidad de Madrid,28050,Spain,40.5178019,-3.6669933
Avenida de Castilla,2,Colmenar de Oreja,Madrid,Comunidad de Madrid,28380,Spain,40.0776823,-3.48686
Calle del Capataz Santiago Gómez Nogurón,19,Montealegre del Castillo,Albacete,Castilla-La Mancha,2650,Spain,38.785756,-1.3304346
Calle del Seis de Junio,197,Valdepeñas,Ciudad Real,Castilla-La Mancha,13300,Spain,38.754979,-3.3887387
Sant Joan de Fabregues,10,Rupit,Barcelona,Catalunya,8569,Spain,42.02472,2.4641621
Travesía Zarza la Mayor,0,Ceclavín,Cáceres,Extremadura,10870,Spain,39.8419799,-6.808649
C/ Adolfo Suárez,141,Puerto Lumbreras,Murcia,Región de Murcia,30890,Spain,37.5748105,-1.7952155
Carretera Fuente Álamo,3,Corvera,Murcia,Región de Murcia,30153,Spain,37.832756,-1.1538753
Calle la Hondura,11,Puerto de Santiago,Santa Cruz de Tenerife,Canarias,38683,Spain,28.23899,-16.84458
Avenida Libertad,224,Hellín,Albacete,Castilla-La Mancha,2400,Spain,38.5246379,-1.7028594
Travesía Robledo,9,Valsaín,Segovia,Castilla y León,40109,Spain,40.8777318,-4.0246811
Plaza de España,4,Motilla del Palancar,Cuenca,Castilla-La Mancha,16200,Spain,39.5609023,-1.9102578
Calle de las Palomas,49,Fuente Obejuna,Córdoba,Andalucía,14290,Spain,38.262917,-5.4182902
Calle Imeldo Serís,25,Santa Cruz de Tenerife,Santa Cruz de Tenerife,Canarias,38003,Spain,28.4658765,-16.2499474
Carretera de la Sierra,11,Burunchel,Jaén,Andalucía,23479,Spain,37.9454006,-2.9532864
Carretera d'Argentona,3,Cabrera de Mar,Barcelona,Catalunya,8349,Spain,41.5157413,2.3955502
Calle Real,92,Vega de Infanzones,León,Castilla y León,24346,Spain,42.4830477,-5.5338378
Rúa Zalaeta,4,A Coruña,A Coruña,,15002,Spain,43.3731103,-8.4001716
Carrer les Valls,3,Estivella,Valencia,Comunidad Valenciana,46590,Spain,39.7156343,-0.3482325
Rúa Corredoira da Torre,13,Santa Comba,A Coruña,,15841,Spain,43.035964,-8.80958
Lugar Sotiello,3,Sotiello,Asturias,,33629,Spain,43.08871,-5.82542
Carretera Ciudad Rodrigo,4,Torrejoncillo,Cáceres,Extremadura,10830,Spain,39.9003448,-6.4707951
Calle Cristóbal Castillo,38,Puente Genil,Córdoba,Andalucía,14500,Spain,37.3880253,-4.7686373
Carretera Navalpino,5,Piedrabuena,Ciudad Real,Castilla-La Mancha,13100,Spain,39.0336643,-4.1710907
Avenida Juan Ramón Jiménez,192,Calasparra,Murcia,Región de Murcia,30420,Spain,38.2226962,-1.7150523
Avenida Acacias,3,Tabernas,Almería,Andalucía,4200,Spain,37.0493375,-2.3941108
Calle Piquete,8,Logroño,La Rioja,La Rioja,26006,Spain,42.4574235,-2.4365213
Calle Real,5,Colmenar del Arroyo,Madrid,Comunidad de Madrid,28213,Spain,40.4189295,-4.1984633
Calle Montemayor,1,Puente Genil,Córdoba,Andalucía,14500,Spain,37.3937931,-4.7662296
Sector Oficios,29,Tres Cantos,Madrid,Comunidad de Madrid,28760,Spain,40.6056189,-3.7151347
Rúa do Outeiro,10,Silleda,Pontevedra,,36540,Spain,42.701252,-8.2453546
Avenida de la Constitución,32,Algodonales,Cádiz,Andalucía,11680,Spain,36.88091,-5.40644
Avenida de las Naciones,29,Illescas,Toledo,Castilla-La Mancha,45200,Spain,40.1508942,-3.8244145
Plaza Doctor Madrazo,15,Vega de Pas,Cantabria,Cantabria,39685,Spain,43.1583383,-3.7820152
Espoloia Kalea,12,Bergara,Gipuzkoa,Euskadi,20570,Spain,43.113219,-2.4149952
Calle Cortes de Soria,1,Soria,Soria,Castilla y León,42003,Spain,41.7632092,-2.4685905
Calle Costanilla,13,Puebla de Sanabria,Zamora,Castilla y León,49300,Spain,42.0528519,-6.6334756
Avinguda de Balmes,13,Lleida,Lleida,Catalunya,25006,Spain,41.6176887,0.6197591
Calle San Lorenzo,20,Burgos,Burgos,Castilla y León,9003,Spain,42.341861,-3.7014712
Rúa Principal,130,Boiro,A Coruña,,15930,Spain,42.6458311,-8.8900275
Estrada xeral San Miguel,4,A Insua,Lugo,,27793,Spain,43.5441262,-7.1935129
Calle Fragata,22,El Rompido,Huelva,Andalucía,21459,Spain,37.217433,-7.123259
Carretera la Bañeza,17,Ribaseca,León,Castilla y León,24391,Spain,42.535542,-5.5915678
N-432,6,Azuaga,Badajoz,Extremadura,6920,Spain,38.2597222,-5.7019444
Avinguda de Catalunya,56,Gironella,Barcelona,Catalunya,8680,Spain,42.0337657,1.8803546
Calle Sevilla,19,Badolatosa,Sevilla,Andalucía,41570,Spain,37.3066719,-4.6706209
Plaza Castillo de Irulegui Enparantza,9,Mutilva Baja,Navarra,Navarra,31192,Spain,42.7923429,-1.6149388
Calle Cervantes,1,Villaviciosa,Asturias,,33300,Spain,43.4818752,-5.433153
Avenida Francisca Herrera,50,Oleiros,La Coruña,,15173,Spain,43.331382,-8.327905
Calle Gómez Oreña,15,Santander,Cantabria,Cantabria,39003,Spain,43.4636682,-3.8017938
Carrer de Santa Teresa,3,Begur,Girona,Catalunya,17255,Spain,41.9550151,3.2064311
Nacional II,117,Torremocha del Campo,Guadalajara,Castilla-La Mancha,19268,Spain,40.9728546,-2.6168408
Rúa Ricardo Cubeiro,4,Oleiros,A Coruña,,15179,Spain,43.3467442,-8.3474153
Rúa Constitución,18,Cambre,A Coruña,,15679,Spain,43.3189711,-8.3576787
Rua Trasdeza,14,Silleda,Pontevedra,,36540,Spain,42.6991728,-8.2512074
Avenida de Mourelle,1,Santa Comba,A Coruña,,15840,Spain,43.0337643,-8.8044983
Plaza Mayor,6,Alcañices,Zamora,Castilla y León,49500,Spain,41.6988953,-6.3472424
Ronda de Outeiro,135,A Coruña,La Coruña,,15007,Spain,43.354972,-8.411871
Carretera General,98,Los Canarios,Santa Cruz de Tenerife,Canarias,38740,Spain,28.49432,-17.84535
Calle de Fausto Elhuyar,3,Alcalá de Henares,Madrid,Comunidad de Madrid,28806,Spain,40.481821,-3.394529
Carrer Pare Claret,3,Fondó dels Frares,Alicante,Comunidad Valenciana,3689,Spain,38.2736244,-0.9269027
Rambla de Catalunya,3,Barcelona,Barcelona,Cataluña,8007,Spain,41.3876946,2.1680496
Calle Orfeón Fernández Caballero,30,Puerto Lumbreras,Murcia,Región de Murcia,30890,Spain,37.5638691,-1.8047508
Calle Víctor García de la Concha,14,Villaviciosa,Asturias,,33300,Spain,43.4837734,-5.4332392
Avenida de Viñuelas,17,Tres Cantos,Madrid,Comunidad de Madrid,28760,Spain,40.5962312,-3.705407
Calle Marqués de Canales y Chozas,2,Ávila,Ávila,Castilla y León,5001,Spain,40.6580009,-4.7014493
Iglesia,22,Abegondo,La Coruña,,15318,Spain,43.2731812,-8.280433
Avda. de la Purísima,65,Catral,Alicante,Comunidad Valenciana,3158,Spain,38.1654972,-0.8032623
Plaça Manuel Sanchís Guarner,1,València,Valencia,Comunidad Valenciana,46006,Spain,39.4576104,-0.375463
Calle Diseminados,1066,Aranda de Duero,Burgos,Castilla y León,9400,Spain,41.6774473,-3.6913499
Carretera Baza,77,Guadix,Granada,Andalucía,18500,Spain,37.3186445,-3.1221842
Avenida de la Constitución,22,Hellín,Albacete,Castilla-La Mancha,2400,Spain,38.5092651,-1.7054034
Avenida Cataluña,57,Calaceite,Teruel,Aragón,44610,Spain,41.0157504,0.1892587
Calle Viajero,1,Venta del Pobre,Almería,Andalucía,4114,Spain,36.9922825,-2.0677303
Ronda del Cañillo,3,Talavera de la Reina,Toledo,Castilla-La Mancha,45600,Spain,39.9565843,-4.8320425
Calle Juan Ramón Jiménez,45,Los Palacios y Villafranca,Sevilla,Andalucía,41720,Spain,37.1624913,-5.9247044
Calle Miguel Hernández,37,Benejúzar,Alicante,Comunidad Valenciana,3390,Spain,38.0764153,-0.8388973
Avenida de Juan XXIII,5,Pozuelo de Alarcón,Madrid,Comunidad de Madrid,28224,Spain,40.4488994,-3.8012725
Carretera de Toledo,7,San Martín de Valdeiglesias,Madrid,Comunidad de Madrid,28680,Spain,40.3591686,-4.4065436
Camí des Cementírí,343,Lloret de Vistalegre,Illes Balears,Illes Balears,7518,Spain,39.6148316,2.9664541
OU-536,123,Castadón,Ourense,,32710,Spain,42.3453503,-7.8137063
Carrer de Ponent,20,Sant Pau d'Ordal,Barcelona,Catalunya,8739,Spain,41.38288,1.79524
Avenida Luxemburgo,36,Nuevo Baztán,Madrid,Comunidad de Madrid,28514,Spain,40.355317,-3.266652
Rúa Os Muiños,32,Figueiró,Pontevedra,,36792,Spain,41.96796,-8.780672
Avinguda Constitució,8,Fondó dels Frares,Alicante,Comunidad Valenciana,3689,Spain,38.2735584,-0.9283983
Calle Padre Anchieta,10,Santa Cruz de Tenerife,Santa Cruz de Tenerife,Canarias,38005,Spain,28.4638763,-16.2536405
Calle Bardenas Reales,76,Sarriguren,Navarra,Navarra,31621,Spain,42.8084564,-1.5899238
Carrer dels Angels,11,Selva,Illes Balears,Illes Balears,7313,Spain,39.7540893,2.9008524
Carrer de sa Tanqueta,1,Randa,Illes Balears,Illes Balears,7629,Spain,39.526432,2.9157148
Calle Real,11,Villaferrueña,Zamora,Castilla y León,49695,Spain,42.0983795,-5.8571254
Rúa de Rosalía de Castro,12,Santa Comba,A Coruña,,15840,Spain,43.0349525,-8.8167672
Plaça Sant Orenç,3,Vielha,Lérida,Cataluña,25530,Spain,42.702669,0.795132
Calle Joaquín Vázquez,2,Almería,Almería,Andalucía,4007,Spain,36.829589,-2.4553569
Rúa Valdriz,16,Láncara,Lugo,,27360,Spain,42.8658333,-7.4444444
Pasaje Andreu,4,Sevilla,Sevilla,Andalucía,41004,Spain,37.3856973,-5.9902799
Avenida de la Coronación,10,Bollullos Par del Condado,Huelva,Andalucía,21710,Spain,37.3407509,-6.5390816
Carretera Hellín,51,Yeste,Albacete,Castilla-La Mancha,2480,Spain,38.3693658,-2.3134614
Calle Huerta de Leonor,2,Cambil,Jaén,Andalucía,23120,Spain,37.6781082,-3.5648512
Camino Casas del Monte,8,Villa de Valverde,Santa Cruz de Tenerife,Canarias,38916,Spain,27.8020978,-17.9550787
Carretera Circunvalación,19,Toledo,Toledo,Castilla-La Mancha,45004,Spain,39.8510422,-4.0204281
Camino los Mocanes,44,Frontera,Santa Cruz de Tenerife,Canarias,38911,Spain,27.7617443,-18.0063244
Travesía Motilla,2,Fuensaldaña,Valladolid,Castilla y León,47194,Spain,41.7059402,-4.7649302
Calle Capitán Fillol,3,Valdepeñas,Ciudad Real,Castilla-La Mancha,13300,Spain,38.7617617,-3.387915
Carretera Puerto la Ragua,30,Laroles,Granada,Andalucía,18494,Spain,37.0108614,-3.0108815
Calle Bartolomé Esteban,10,Teruel,Teruel,Aragón,44001,Spain,40.3424042,-1.1054577
Camino Baño de las Mulas,34,Ossa de Montiel,Albacete,Castilla-La Mancha,2611,Spain,38.9250483,-2.8328097
Aldea San Juan,2,Villaviciosa,Asturias,,33311,Spain,43.4682805,-5.4444235
Carretera Cifuentes,64,Saelices de la Sal,Guadalajara,Castilla-La Mancha,19443,Spain,40.906099,-2.3242465
Calle Cervantes,1,Villaviciosa,Asturias,,33300,Spain,43.4818752,-5.433153
Rúa San Juan,17,Sobrado do Bispo,Ourense,,32890,Spain,42.2905258,-7.9059889
Rúa Constitución,18,Cambre,A Coruña,,15679,Spain,43.3189711,-8.3576787
Calle la Fuente,16,Nueno,Huesca,Aragón,22150,Spain,42.2669565,-0.4395402
Carretera Ciudad Rodrigo,4,Torrejoncillo,Cáceres,Extremadura,10830,Spain,39.9003448,-6.4707951
Avenida Marín Lázaro,11,Utiel,Valencia,Comunidad Valenciana,46300,Spain,39.5716679,-1.2063532
estación,10,Santa María de la Alameda,Madrid,Comunidad de Madrid,28296,Spain,40.5675699,-4.2683856
Avenida de Andalucia,10,Pruna,Sevilla,Andalucía,41670,Spain,36.97343,-5.22183
Ronda de Outeiro,300,A Coruña,La Coruña,,15011,Spain,43.3651555,-8.4241511
Calle Paco Segovia,22,Las Navas del Marqués,Ávila,Castilla y León,5230,Spain,40.603268,-4.3336131
Avenida del Ebro,1,El Burgo de Ebro,Zaragoza,Aragón,50730,Spain,41.5600848,-0.720031
AP-7,70,Km,Girona,Cataluña,17181,Spain,41.9074872,2.7723
Partida Torrent,15,La Nucía,Alicante,Comunidad Valenciana,3530,Spain,38.6193417,-0.1332257
Plaza de la Venta,1,Iznájar,Córdoba,Andalucía,14970,Spain,37.2567884,-4.3039547
Calle Lejalde,27,Fitero,Navarra,Navarra,31593,Spain,42.0557857,-1.8602233
Carrer Nou,12,Salomó,Tarragona,Catalunya,43885,Spain,41.2302622,1.3748993
Calle Rey Juan Carlos I,29,Santa María de la Alameda,Madrid,Comunidad de Madrid,28296,Spain,40.5971907,-4.2593597
Carretera General Tajuya,2,El Paso,Santa Cruz de Tenerife,Canarias,38750,Spain,28.6337055,-17.8898694
N-623,60,Escalada,Burgos,Castilla y León,9145,Spain,42.8022244,-3.7689875
Ronda de Outeiro,135,A Coruña,La Coruña,,15007,Spain,43.354972,-8.411871
AP-68,36,Km,Álava,País Vasco,1139,Spain,42.9655983,-2.8743696
Gran Vía,84,Madrid,Madrid,Comunidad de Madrid,28013,Spain,40.4242393,-3.711363
Calle Alcalde Díaz Penedela,4,Cangas del Narcea,Asturias,,33800,Spain,43.178094,-6.5505436
Avenida de la Constitución,32,Algodonales,Cádiz,Andalucía,11680,Spain,36.88091,-5.40644
Avenida Castilla,21,Cheste,Valencia,Comunidad Valenciana,46380,Spain,39.4921074,-0.6838931
Calle Real,106,Orellana la Vieja,Badajoz,Extremadura,6740,Spain,39.0107524,-5.5333237
Passeig de l'Església,1,Torroella de Montgrí,Girona,Catalunya,17257,Spain,42.0436224,3.1247215
Avenida Santiago,7,O Pedrouzo,A Coruña,,15821,Spain,42.9041294,-8.3634479
Calle Real,11,Villaferrueña,Zamora,Castilla y León,49695,Spain,42.0983795,-5.8571254
Calle Maestro Galindo Arjona,9,Riópar,Albacete,Castilla-La Mancha,2450,Spain,38.4994962,-2.4165047
Rua Enrique Mariñas Romero,36,A Coruña,A Coruña,,15009,Spain,43.3390617,-8.403922
Carrer de Sant Domènec,6,La Seu d'Urgell,Lleida,Catalunya,25700,Spain,42.358655,1.4619617
Rúa Celso Emilio Ferreiro,7,Celanova,Ourense,,32800,Spain,42.1532444,-7.9564743
Carrer Mina de Madró,22,La Pobla de Mafumet,Tarragona,Catalunya,43140,Spain,41.1851532,1.2071755
Avenida del Moncayo,2,San Sebastián de los Reyes,Madrid,Comunidad de Madrid,28703,Spain,40.5553014,-3.6144786
Calle Mayor Baja,32,Perales de Tajuña,Madrid,Comunidad de Madrid,28540,Spain,40.2337646,-3.3523538
Calle Correo,79,San José,Almería,Andalucía,4118,Spain,36.7582796,-2.1094288
Plaça Major,1,Algar de Palància,Valencia,Comunidad Valenciana,46593,Spain,39.7811961,-0.367778
Calle San Isidro,4,Villacedré,León,Castilla y León,24009,Spain,42.5639011,-5.5863574
Calle del Seis de Junio,197,Valdepeñas,Ciudad Real,Castilla-La Mancha,13300,Spain,38.754979,-3.3887387
Paseo Ramón y Cajal,3,Jarque,Zaragoza,Aragón,50258,Spain,41.5558533,-1.6744004
Avenida Martín Palomino,80,Plasencia,Cáceres,Extremadura,10600,Spain,40.0073655,-6.1136196
Calle Navarra,57,Lillo,Toledo,Castilla-La Mancha,45870,Spain,39.7295479,-3.3080833
Calle de Alfonso XII,18,Madrid,Madrid,Comunidad de Madrid,28014,Spain,40.4171891,-3.6891374
Plaza de la Constitución,2,Montejícar,Granada,Andalucía,18561,Spain,37.5721939,-3.5046262
LP-213,209,Los Llanos,Santa Cruz de Tenerife,Canarias,38769,Spain,28.6401611,-17.9072964
Calle Molino,1,Bello,Teruel,Aragón,44232,Spain,40.9234809,-1.4957785
Plaça de l'Església,12,L'Espluga de Francolí,Tarragona,Catalunya,43440,Spain,41.3962763,1.1032273
Aiztogile Kalea,3,Gasteiz,Araba,Euskadi,1001,Spain,42.8478156,-2.670738
Calle la Torre,80,Benalup-Casas Viejas,Cádiz,Andalucía,11190,Spain,36.33492,-5.8187857
Calle Río Jarama,15,Toledo,Toledo,Castilla-La Mancha,45007,Spain,39.8666128,-3.9673525
Avenida de Andalucia,174,Algodonales,Cádiz,Andalucía,11680,Spain,36.8832175,-5.3942691
Calle Resejo,10,Riaño,León,Castilla y León,24900,Spain,42.9764633,-5.0038132
Rua Trasdeza,14,Silleda,Pontevedra,,36540,Spain,42.6991728,-8.2512074
Carretera de Ávila,4,San Martín de Valdeiglesias,Madrid,Comunidad de Madrid,28680,Spain,40.3611018,-4.4030717
Ibargarai Hiribidea,37,Bergara,Gipuzkoa,Euskadi,20570,Spain,43.1136671,-2.4159189
Calle Romero,1,Córdoba,Córdoba,Andalucía,14003,Spain,37.87972,-4.78131
Calle Candelaria,6,Santa Cruz de Tenerife,Santa Cruz de Tenerife,Canarias,38003,Spain,28.4650619,-16.2491323
Calle Mably,2,Murcia,Murcia,Región de Murcia,30890,Spain,37.5615768,-1.8091169
Avenida Andalucía,55,Guillena,Sevilla,Andalucía,41210,Spain,37.5406599,-6.0555653
Rúa Fonsillón,59,Ourense,Ourense,,32005,Spain,42.3221092,-7.8730463
Carretera Valencia,46,Motilla del Palancar,Cuenca,Castilla-La Mancha,16200,Spain,39.5624457,-1.9083931
Plaça del Patalin,1,La Seu d'Urgell,Lleida,Catalunya,25700,Spain,42.3574685,1.4608947
Avenida Juan de La rosa,1,Grazalema,Cádiz,Andalucía,11610,Spain,36.758364,-5.3629735
Avinguda Sant Antoni de Padua,23,Foia d'Elx,Alicante,Comunidad Valenciana,3294,Spain,38.213057,-0.6836257
Calle del Molino,3,Mendavia,Navarra,Navarra,31587,Spain,42.4449119,-2.200886
Lugar Outeiro,17,Meaño,Pontevedra,,36638,Spain,42.4760659,-8.7772344
Avenida Coruña,3,Arteixo,La Coruña,,15008,Spain,43.3403239,-8.4453439
Mendiondo Auzoa,4,Mendiondo,Bizkaia,Euskadi,48610,Spain,43.3679868,-2.9427673
Avinguda de les Alegries,9-11,Lloret de Mar,Girona,Catalunya,17310,Spain,41.7044031,2.8343369
Lugar Rueiro,5,Cambre,A Coruña,,15669,Spain,43.289732,-8.3299388
Avinguda Just Marlés Vilarrodona,53,Lloret de Mar,Girona,Catalunya,17310,Spain,41.7003029,2.8425149
Calle San Francisco,29,Alcañices,Zamora,Castilla y León,49500,Spain,41.6997394,-6.3458715
Calle Francisco Puerta González-Conde,29,Bullas,Murcia,Región de Murcia,30180,Spain,38.047917,-1.667396
Carrer Sa Cala,16,Deià,Illes Balears,Illes Balears,7179,Spain,39.7602197,2.64093
Calle San Román Orto,23,San Román,A Coruña,,15318,Spain,43.2802131,-8.2758206
Carrer des Pou Florit,63,Porreres,Illes Balears,Illes Balears,7260,Spain,39.5142864,3.025874
Avenida de Alcoy,2,Castell de Castells,Alicante,Comunidad Valenciana,3793,Spain,38.723486,-0.1952051
Carrer Vaquet,1,Estellencs,Illes Balears,Illes Balears,7192,Spain,39.6538986,2.4808833
Calle Marqués de Toca,2,Los Baños de Fortuna,Murcia,Región de Murcia,30620,Spain,38.2082932,-1.111677
Estrada Baños de Arteixo,43,A Coruña,A Coruña,,15008,Spain,43.3454114,-8.4292933
Calle Cristóbal Colón,1,Almoradí,Alicante,Comunidad Valenciana,3160,Spain,38.1130133,-0.7893072
Calle Vegamián,15,León,León,Castilla y León,24007,Spain,42.6116239,-5.5660201
c/ Carrobierzo,28,Jiménez de Jamuz,León,Castilla y León,24767,Spain,42.2713503,-5.933386
Calle de Rafael Botí,4,Madrid,Madrid,Comunidad de Madrid,28023,Spain,40.4632204,-3.8032207
Calle Ernesto Sábato,9,Illescas,Toledo,Castilla-La Mancha,45200,Spain,40.1492481,-3.8342278
Ibargarai Hiribidea,44,Bergara,Gipuzkoa,Euskadi,20570,Spain,43.1153287,-2.4163843
Carrer de sa Tanqueta,1,Randa,Illes Balears,Illes Balears,7629,Spain,39.526432,2.9157148
Plaza de la Catedral,10,Ávila,Ávila,Castilla y León,5001,Spain,40.6565895,-4.6980648
Calle Piedrabuena,2,Luciana,Ciudad Real,Ciudad Real,13108,Spain,38.9842015,-4.2915524
Calle Granada,65,Monachil,Granada,Andalucía,18193,Spain,37.1374126,-3.5671771
C-59,1,Moià,Barcelona,Cataluña,8180,Spain,41.808913,2.0983357
Avenida de Aspe,8,Villena,Alicante,Comunidad Valenciana,3400,Spain,38.6286531,-0.860163
Cabana -Anceis,5,Pontido,A Coruña,,15181,Spain,43.2808061,-8.3607298
Rúa de Suárez Vence,4,Santa Comba,A Coruña,,15840,Spain,43.0336002,-8.808833
Poligono Diecisiete,3,Escurial,Cáceres,Extremadura,10133,Spain,39.1725487,-5.8969099
Polígon Can Font de la Parera,1,La Roca del Vallès,Barcelona,Catalunya,8430,Spain,41.6090684,2.3529932
Calle Costanilla,13,Puebla de Sanabria,Zamora,Castilla y León,49300,Spain,42.0528519,-6.6334756
Plaza Santa Casilda,5,Briviesca,Burgos,Castilla y León,9240,Spain,42.5521894,-3.3249618
Calle Figones,8,Arévalo,Ávila,Castilla y León,5200,Spain,41.0636749,-4.7215485
Calle Camino de Frasco Llamas,11,Tabernas,Almería,Andalucía,4200,Spain,37.055385,-2.3872569
Rúa Picavia,2,A Coruña,A Coruña,,15004,Spain,43.3651857,-8.4055485
Calle Oturia,34,Yebra de Basa,Huesca,Aragón,22610,Spain,42.4863224,-0.2813019
Calle Monte Vélez,33,Huétor Vega,Granada,Andalucía,18198,Spain,37.140774,-3.562167
Carrer Anselm Clavé,1,Granollers,Barcelona,Catalunya,8402,Spain,41.608168,2.2890241
Avenguda deth Pas d'Arró,29,Vielha,Lleida,Catalunya,25530,Spain,42.699364,0.8019311
Rúa de Celanova,54,Vilar de Santos,Ourense,,32650,Spain,42.0876802,-7.7922819
Calle Antonio Dominguez Alfonso,6,Playa de la Américas,Santa Cruz de Tenerife,Canarias,38660,Spain,28.057181,-16.731657
Calle Lobo,3,Orgaz,Toledo,Castilla-La Mancha,45450,Spain,39.6488569,-3.8754267
Partida Rampudeta,0,Parcent,Alicante,Comunidad Valenciana,3792,Spain,38.7376967,-0.0752763
Carretera Puerto la Ragua,30,Laroles,Granada,Andalucía,18494,Spain,37.0108614,-3.0108815
Calle General Campomanes,18,Villaviciosa,Asturias,,33300,Spain,43.4794194,-5.4336162
Calle del Concejo de Olaz,11,Pamplona,Navarra,Navarra,31016,Spain,42.8080528,-1.6121046
Plaza Mayor,9,Luintra,Ourense,,32160,Spain,42.4110167,-7.7273173
Plaza Ramón y Cajal,22,Villarrobledo,Albacete,Castilla-La Mancha,2600,Spain,39.264066,-2.604723
Carrer dels Llorac,2,Solivella,Tarragona,Catalunya,43412,Spain,41.4558258,1.1770606
Praza de Compostela,21,Vigo,Pontevedra,,36201,Spain,42.2396951,-8.7214113
Rúa Nova,125,Lugo,Lugo,,27001,Spain,43.0134569,-7.560662
Plaza de la Catedral,1,Huesca,Huesca,Aragón,22002,Spain,42.1406638,-0.408934
Avenida de Arcos,84,Villamartin,Cádiz,Andalucía,11650,Spain,36.8561407,-5.6533094
Avinguda de la Vital,10,Gandia,Valencia,Comunidad Valenciana,46701,Spain,38.9691103,-0.1698184
Rúa Ramón Puga,25,Ourense,Ourense,,32005,Spain,42.3289469,-7.8612633
Avenida de Mourelle,1,Santa Comba,A Coruña,,15840,Spain,43.0337643,-8.8044983
Paseo José Fernández Vega,27,Brenes,Sevilla,Andalucía,41310,Spain,37.5470043,-5.8698838
Calle Camino de Catral,33,Almoradí,Alicante,Comunidad Valenciana,3160,Spain,38.11667,-0.79715
Rúa Cantón San Roque,48,Melide,A Coruña,,15800,Spain,42.9134192,-8.0125172
Carrer Pi i Ralló,7,Begur,Girona,Catalunya,17255,Spain,41.9548707,3.2076928
Calle Espolon,22-24,Hortigüela,Burgos,Castilla y León,9640,Spain,42.068652,-3.4252106
Paseo Costa Canaria,24,Maspalomas,Las Palmas,Canarias,35100,Spain,27.7540342,-15.5686194
Carrer de sa Creu,20,Campos,Illes Balears,Illes Balears,7630,Spain,39.4327981,3.0190638
Plaza Madrid,9,Mora,Toledo,Castilla-La Mancha,45400,Spain,39.6846744,-3.7709152
Carrer de Barcelona,58,Balaguer,Lérida,Cataluña,25600,Spain,41.7878304,0.8108686
Calle Bartolomé Esteban,10,Teruel,Teruel,Aragón,44001,Spain,40.3424042,-1.1054577
Avenida de 7 Fuentes,632,Marugán,Segovia,Castilla y León,40142,Spain,40.8643163,-4.4015775
Calle Portal de Molina,17,Albarracín,Teruel,Aragón,44100,Spain,40.4082351,-1.4443982
Rúa Valdriz,16,Láncara,Lugo,,27360,Spain,42.8658333,-7.4444444
Calle Nieves,61,Bolaños de Calatrava,Ciudad Real,Castilla-La Mancha,13260,Spain,38.90913,-3.66733
Calle Cristóbal Colón,1,Almoradí,Alicante,Comunidad Valenciana,3160,Spain,38.1130133,-0.7893072
Carrer Barcelona,483,Girona,Girona,Catalunya,17005,Spain,41.9500938,2.8064932
Calle la Iglesia,2,Villanueva de la Condesa,Valladolid,Castilla y León,47608,Spain,42.1486334,-5.0944626
Carrer Major,5,la Romana,Alicante,Comunidad Valenciana,3669,Spain,38.3679866,-0.8972794
Carrer de Peralta,2,Renau,Tarragona,Catalunya,43886,Spain,41.2245123,1.3111566
Rúa Picavia,2,A Coruña,A Coruña,,15004,Spain,43.3651857,-8.4055485
Avenida de la Estación,9,Montijo,Badajoz,Extremadura,6480,Spain,38.9112474,-6.607159
AP-2,48,Km,Zaragoza,Aragón,50750,Spain,41.526161,-0.3967808
Rambla de Catalunya,3,Barcelona,Barcelona,Cataluña,8007,Spain,41.3876946,2.1680496
Avenida de la Constitución,32,Algodonales,Cádiz,Andalucía,11680,Spain,36.88091,-5.40644
Rúa Peregrino,29,Sarria,Lugo,,27600,Spain,42.776588,-7.4105075
Carrer Pau Casals,15,Vidreres,Girona,Catalunya,17411,Spain,41.7897126,2.7793804
Rúa do Outeiro,10,Silleda,Pontevedra,,36540,Spain,42.701252,-8.2453546
Carretera Zamora,5018,Calzada de Valdunciel,Salamanca,Castilla y León,37797,Spain,41.0839227,-5.6968746
Cuñat y Cortes,3,Chiva,Valencia,Comunidad Valenciana,46370,Spain,39.4714202,-0.7163485
Rúa San Juan,17,Sobrado do Bispo,Ourense,,32890,Spain,42.2905258,-7.9059889
Calle Andrés Sánchez de Alva,8,El Cuervo,Sevilla,Andalucía,41749,Spain,36.8518663,-6.0409894
Calle Montalbán,19,Puente Genil,Córdoba,Andalucía,14500,Spain,37.3994789,-4.7643766
Calle Castilla-la Mancha,1,Hellín,Albacete,Castilla-La Mancha,2400,Spain,38.506503,-1.6979439
Calle Toledo,21,San Pablo de los Montes,Toledo,Castilla-La Mancha,45120,Spain,39.5391662,-4.3300606
Calle Corredera del Este,6,Yecla de Yeltes,Salamanca,Castilla y León,37219,Spain,40.9582318,-6.4884138
Calle Constitución,15,Valdepeñas,Ciudad Real,Castilla-La Mancha,13300,Spain,38.760294,-3.390517
Calle de la Purísima,52,Granja de Torrehermosa,Badajoz,Extremadura,6910,Spain,38.3071201,-5.6041825
Calle Torrecillas,2,Mecina-Fondales,Granada,Andalucía,18414,Spain,36.92965,-3.32268
Carrer Antoni Guix i Ribelles,25,Lleida,Lleida,Catalunya,25191,Spain,41.611003,0.66182
Plaza el Tollo,174,Monreal del Campo,Teruel,Aragón,44300,Spain,40.7746157,-1.3441904
Avenida Coruña,3,Arteixo,La Coruña,,15008,Spain,43.3403239,-8.4453439
Calle Mayor,36,Pozo de Guadalajara,Guadalajara,Castilla-La Mancha,19161,Spain,40.4941922,-3.1824715
Avenida Olaz,8,Egüés,Navarra,Navarra,31620,Spain,42.8164946,-1.5892055
Calle Mably,2,Murcia,Murcia,Región de Murcia,30890,Spain,37.5615768,-1.8091169
Carrer des Molí d'en Negre,18,Porreres,Illes Balears,Illes Balears,7260,Spain,39.5119968,3.0199304
c/ Carrobierzo,28,Jiménez de Jamuz,León,Castilla y León,24767,Spain,42.2713503,-5.933386
Avenida José Manuel Abascal,2,Vega de Pas,Cantabria,Cantabria,39685,Spain,43.1580231,-3.7835438
Carretera Burgos Santander,20,Sotopalacios,Burgos,Castilla y León,9140,Spain,42.4338729,-3.6820215
Avenida Barcelona,11,Torreblanca,Castellón,Comunidad Valenciana,12596,Spain,40.2222006,0.2007848
Avenguda Maladeta,8,Vielha,Lleida,Catalunya,25530,Spain,42.7026981,0.7996759
Carrer de la Corretgeria,37,València,Valencia,Comunidad Valenciana,46001,Spain,39.4752898,-0.3771125
Avenida de la Coronación,6,Villamartin,Cádiz,Andalucía,11650,Spain,36.8620435,-5.6466599
Carretera Barcelona,14,Villafranca de Ebro,Zaragoza,Aragón,50174,Spain,41.5764079,-0.6453322
Carretera Guadalupe,3,Logrosán,Cáceres,Extremadura,10120,Spain,39.3334904,-5.4799596
Calle Iglesia,5,Brazatortas,Ciudad Real,Castilla-La Mancha,13450,Spain,38.6583585,-4.2922385
Calle San Martín,3,Briviesca,Burgos,Castilla y León,9240,Spain,42.5511429,-3.3242132
Paseo Nuestra Señora de Sonsoles,1,Ávila,Ávila,Castilla y León,5002,Spain,40.6463244,-4.6985492
Calle de la Herrería,11,Segovia,Segovia,Castilla y León,40001,Spain,40.950083,-4.122491
Carretera Baza,77,Guadix,Granada,Andalucía,18500,Spain,37.3186445,-3.1221842
GR-6100,50,Gor,Granada,Andalucía,18870,Spain,37.399333,-2.9925218
Carrer Doctor Codina,114,La Cellera de Ter,Girona,Catalunya,17165,Spain,41.97384,2.62104
Calle Real,14,Hontanas,Burgos,Castilla y León,9227,Spain,42.3127763,-4.0441205
Urbanitzacio Can Salas,9,Terrassa,Barcelona,Catalunya,8227,Spain,41.591985,2.0431725
Avenida de Santiago,47,Santa Comba,La Coruña,,15840,Spain,43.0314285,-8.8000434
Calle Marqués de la Ensenada,35,Santander,Cantabria,Cantabria,39009,Spain,43.4514744,-3.8201364
Calle de Eduardo Dato,4,Zaragoza,Zaragoza,Aragón,50005,Spain,41.6457424,-0.8898989
Avenida Primero de Mayo,21,Parque Holandés,Las Palmas,Canarias,35649,Spain,28.6040682,-13.8364044
Calle Tamarco,22,Las Playitas,Las Palmas,Canarias,35629,Spain,28.2301502,-13.9837818
Carrer Nou,12,Salomó,Tarragona,Catalunya,43885,Spain,41.2302622,1.3748993
Calle Pintor Guillermo Pérez Villalta,60,Tarifa,Cádiz,Andalucía,11380,Spain,36.018994,-5.613299
Calle la Lava,10,Costa Adeje,Santa Cruz de Tenerife,Canarias,38678,Spain,28.1274692,-16.7831776
Calle Lejalde,27,Fitero,Navarra,Navarra,31593,Spain,42.0557857,-1.8602233
Calle Maestro Santidrian,15,Valdelateja,Burgos,Castilla y León,9145,Spain,42.774866,-3.7673369
Travesia Laciana,13,Villaseca de Laciana,León,Castilla y León,24140,Spain,42.9439008,-6.2532478
Passeig de l'Estació,43,Balaguer,Lleida,Catalunya,25600,Spain,41.7890665,0.8129758
Espoloia Kalea,12,Bergara,Gipuzkoa,Euskadi,20570,Spain,43.113219,-2.4149952
Calle Alcalde Díaz Penedela,4,Cangas del Narcea,Asturias,,33800,Spain,43.178094,-6.5505436
Rúa Valdriz,16,Láncara,Lugo,,27360,Spain,42.8658333,-7.4444444
GR-6100,50,Gor,Granada,Andalucía,18870,Spain,37.399333,-2.9925218
Paseo Costa Canaria,24,Maspalomas,Las Palmas,Canarias,35100,Spain,27.7540342,-15.5686194
Calle Maestro Galindo Arjona,9,Riópar,Albacete,Castilla-La Mancha,2450,Spain,38.4994962,-2.4165047
Plaza de Andalucia,8,Villaviciosa de Córdoba,Córdoba,Andalucía,14300,Spain,38.0759506,-5.0144891
Avenida de Jaun Carlos I,5,Uleila del Campo,Almería,Andalucía,4279,Spain,37.1833,-2.20621
Avenida Primero de Mayo,21,Parque Holandés,Las Palmas,Canarias,35649,Spain,28.6040682,-13.8364044
Avenida de la Industria,3,Carranque,Toledo,Castilla-La Mancha,45216,Spain,40.1808334,-3.8876347
Calle Camino de Frasco Llamas,11,Tabernas,Almería,Andalucía,4200,Spain,37.055385,-2.3872569
Calle Bartolomé Esteban,10,Teruel,Teruel,Aragón,44001,Spain,40.3424042,-1.1054577
Passeig de Sant Joan,40,Manlleu,Barcelona,Catalunya,8560,Spain,41.9998884,2.2861772
Calle Figones,8,Arévalo,Ávila,Castilla y León,5200,Spain,41.0636749,-4.7215485
Carrer Sant Antoni,33,Torreblanca,Castelló,Comunidad Valenciana,12596,Spain,40.2201593,0.1943547
Rúa Valle inclán,2,Ribadumia,Pontevedra,,36636,Spain,42.5023048,-8.7684367
Calle Ramón Alfonso,19,La Puebla de Alfindén,Zaragoza,Aragón,50171,Spain,41.6347437,-0.7508441
Calle San Francisco,4,Avilés,Asturias,,33402,Spain,43.555245,-5.9227782
Calle las Cañadas,27,La Palma del Condado,Huelva,Andalucía,21700,Spain,37.3848155,-6.5453397
Rúa Xuncal,4,Sigüeiro,A Coruña,,15888,Spain,42.968772,-8.44223
Plaza de Bib-Rambla,27,Granada,Granada,Andalucía,18001,Spain,37.1747631,-3.5996411
Avenida de la Estación,9,Montijo,Badajoz,Extremadura,6480,Spain,38.9112474,-6.607159
Poligono Diecisiete,3,Escurial,Cáceres,Extremadura,10133,Spain,39.1725487,-5.8969099
Pinos,57,Santa Cruz de Tenerife,Santa Cruz de Tenerife,Canarias,38750,Spain,28.6470206,-17.8998647
Avenida Libertad,161,Hellín,Albacete,Castilla-La Mancha,2400,Spain,38.5257214,-1.7033073
Calle Conde de Cedillo,15,Cedillo del Condado,Toledo,Castilla-La Mancha,45214,Spain,40.1137259,-3.9245075
Plaça de l'Església,12,L'Espluga de Francolí,Tarragona,Catalunya,43440,Spain,41.3962763,1.1032273
Avenida de Santiago,8,Santa Comba,La Coruña,,15840,Spain,43.0334072,-8.8041863
Avenida de Alcoy,21,Castell de Castells,Alicante,Comunidad Valenciana,3793,Spain,38.7221059,-0.1956999
Calle Fuente,1,La Aceña de la Borrega,Cáceres,Extremadura,10515,Spain,39.3228393,-7.2275778
Avenida Ronda,23,Aguilar de Campoo,Palencia,Castilla y León,34800,Spain,42.7943267,-4.2649731
Plaza Cervantes,13,Badajoz,Badajoz,Extremadura,6001,Spain,38.8776841,-6.9671141
Aldea o Campo da Vila,2,Cambados,Pontevedra,,36635,Spain,42.5277862,-8.7630331
Ronda del Cañillo,3,Talavera de la Reina,Toledo,Castilla-La Mancha,45600,Spain,39.9565843,-4.8320425
Avenida Anaitasuna,7,Mutilva Baja,Navarra,Navarra,31192,Spain,42.7930693,-1.6151965
Calle Crucera,1,Tronchón,Teruel,Aragón,44141,Spain,40.6215458,-0.3986313
Lugar Exipto,86,Boiro,A Coruña,,15938,Spain,42.639331,-8.8627423
Rúa das Arcas,2,Monterroso,Lugo,,27560,Spain,42.7924047,-7.8318992
Avenida de Cuba,87,Badolatosa,Sevilla,Andalucía,41570,Spain,37.30762,-4.6743
Carrer de la Corretgeria,37,València,Valencia,Comunidad Valenciana,46001,Spain,39.4752898,-0.3771125
Calzada Martiánez,17,Puerto de la Cruz,Santa Cruz de Tenerife,Canarias,38400,Spain,28.4138658,-16.5421705
Plaza Emilio Reina,6,Puente Genil,Córdoba,Andalucía,14500,Spain,37.3883312,-4.7803425
Carrer de Can Escursac,12,Palma,Illes Balears,Illes Balears,7001,Spain,39.5709057,2.6509374
Calle la Hondura,11,Puerto de Santiago,Santa Cruz de Tenerife,Canarias,38683,Spain,28.23899,-16.84458
Calle Vegamián,15,León,León,Castilla y León,24007,Spain,42.6116239,-5.5660201
Calle Real,5,Colmenar del Arroyo,Madrid,Comunidad de Madrid,28213,Spain,40.4189295,-4.1984633
Polígon Can Font de la Parera,1,La Roca del Vallès,Barcelona,Catalunya,8430,Spain,41.6090684,2.3529932
Plaza de Calvo Sotelo,2,Navas del Rey,Madrid,Comunidad de Madrid,28695,Spain,40.3849336,-4.2512281
Avinguda Universitària,17,Manresa,Barcelona,Catalunya,8243,Spain,41.7385947,1.8219679
Carrer Major,14,Albalat dels Tarongers,Valencia,Comunidad Valenciana,46591,Spain,39.7030547,-0.3386037
Paseo Ramón y Cajal,3,Jarque,Zaragoza,Aragón,50258,Spain,41.5558533,-1.6744004
Calle la Rambla,18,Pinzón,Sevilla,Andalucía,41728,Spain,37.1104763,-6.0183193
Calle Gómez Becerra,2,Cáceres,Cáceres,Extremadura,10001,Spain,39.4698755,-6.3792663
Plaza Mayor,1,Lerma,Burgos,Castilla y León,9340,Spain,42.0261111,-3.7553222
Plaza de España,3,Colmenar del Arroyo,Madrid,Comunidad de Madrid,28213,Spain,40.4185317,-4.1983881
Lugar Vilariño,20,Forcarei,Pontevedra,,36556,Spain,42.550935,-8.2839875
Carretera Medellín,34,Torre de Santa María,Cáceres,Extremadura,10186,Spain,39.2604549,-6.1054248
Calle Correos,11,Valladolid,Valladolid,Castilla y León,47001,Spain,41.652978,-4.729662
Rúa Eduardo Blanco Amor,6,Porto de Santa Cruz,A Coruña,,15179,Spain,43.3485624,-8.3445126
Calle San Lorenzo,20,Burgos,Burgos,Castilla y León,9003,Spain,42.341861,-3.7014712
Calle San José,2,Hondón de las Nieves,Alicante,Comunidad Valenciana,3688,Spain,38.3087112,-0.8552284
Carrer de Sant Esteve,7,Caldes de Malavella,Girona,Catalunya,17455,Spain,41.837129,2.8083505
Calle Zaldívar,21,Villaviciosa,Asturias,,33300,Spain,43.4805429,-5.4328609
LP-213,209,Los Llanos,Santa Cruz de Tenerife,Canarias,38769,Spain,28.6401611,-17.9072964
Diseminado son cardaix,459,Font de Sa Cala,Illes Balears,Illes Balears,7589,Spain,39.6853186,3.4529335
Calle Luis Morote,56,Las Palmas de Gran Canaria,Las Palmas,Canarias,35007,Spain,28.1413029,-15.4348576
Calle San Benito,1,Villanueva de la Serena,Badajoz,Extremadura,6700,Spain,38.9738365,-5.8011603
Carrer Can Xalet,10,Alaró,Illes Balears,Illes Balears,7340,Spain,39.7064841,2.7884964
Avenguda Baile Calbetó Barra,1,Vielha,Lérida,Cataluña,25530,Spain,42.7033284,0.7933982
Calle Diseminados,77,La Gineta,Albacete,Castilla-La Mancha,2110,Spain,39.1354876,-2.0392959
Calle Mayor,11,Almoradí,Alicante,Comunidad Valenciana,3160,Spain,38.1085679,-0.7928026
Calle Chorro,1,Albarracín,Teruel,Aragón,44126,Spain,40.4079204,-1.4435517
Calle del Capataz Santiago Gómez Nogurón,19,Montealegre del Castillo,Albacete,Castilla-La Mancha,2650,Spain,38.785756,-1.3304346
Calle Baja,6,La Puebla de Roda,Huesca,Aragón,22482,Spain,42.302807,0.5417387
Plaza de la Independencia Local,7-2,Cardeña,Córdoba,Andalucía,14445,Spain,38.2707418,-4.3236022
Plaça Sant Orenç,3,Vielha,Lérida,Cataluña,25530,Spain,42.702669,0.795132
Calle Bardenas Reales,5,Sarriguren,Navarra,Navarra,31621,Spain,42.8106594,-1.5985096
Plaza de España,3,Grazalema,Cádiz,Andalucía,11610,Spain,36.7582568,-5.3657067
Calle del Concejo de Olaz,11,Pamplona,Navarra,Navarra,31016,Spain,42.8080528,-1.6121046
Travesía Arcabuceros,4,Bolaños de Calatrava,Ciudad Real,Castilla-La Mancha,13260,Spain,38.908525,-3.668449
Avenida de Celanova,57,A Valenza,Ourense,,32002,Spain,42.319423,-7.8813493
Plaza Mayor,9,Luintra,Ourense,,32160,Spain,42.4110167,-7.7273173
Travesía Zarza la Mayor,0,Ceclavín,Cáceres,Extremadura,10870,Spain,39.8419799,-6.808649
Calle Molino,9,Jatiel,Teruel,Aragón,44592,Spain,41.2185972,-0.380812
Calle Caño,48,Los Navalmorales,Toledo,Castilla-La Mancha,45140,Spain,39.7205439,-4.6435993
Calle Cruz de Orea,51,Cazorla,Jaén,Andalucía,23470,Spain,37.9117133,-3.0046467
Calle Marqués de la Ensenada,35,Santander,Cantabria,Cantabria,39009,Spain,43.4514744,-3.8201364
Avenida de Andalucia,10,Pruna,Sevilla,Andalucía,41670,Spain,36.97343,-5.22183
Plaza Doctor Madrazo,15,Vega de Pas,Cantabria,Cantabria,39685,Spain,43.1583383,-3.7820152
Calle Víctor García de la Concha,14,Villaviciosa,Asturias,,33300,Spain,43.4837734,-5.4332392
Avinguda de Catalunya,56,Gironella,Barcelona,Catalunya,8680,Spain,42.0337657,1.8803546
LE-512,18,Villanueva de las Manzanas,León,Castilla y León,24225,Spain,42.4497504,-5.5012385
Calle Antonio González Abato,5,Brenes,Sevilla,Andalucía,41310,Spain,37.5540465,-5.8682021
Calle Joaquín Costa,32,Boquiñeni,Zaragoza,Aragón,50620,Spain,41.8475549,-1.2508091
Plaza España,7,Luna,Zaragoza,Aragón,50610,Spain,42.1668184,-0.9320238
Calle Navarra,57,Lillo,Toledo,Castilla-La Mancha,45870,Spain,39.7295479,-3.3080833
Calle Real,5,Colmenar del Arroyo,Madrid,Comunidad de Madrid,28213,Spain,40.4189295,-4.1984633
Carrer Can Xalet,10,Alaró,Illes Balears,Illes Balears,7340,Spain,39.7064841,2.7884964
Calle San Román Orto,23,San Román,A Coruña,,15318,Spain,43.2802131,-8.2758206
Camino Gálvez,6,Murcia,Murcia,Región de Murcia,30570,Spain,37.981783,-1.0914827
Avenida de Emilio Romero,55,Arévalo,Ávila,Castilla y León,5200,Spain,41.0547805,-4.7118019
Rúa Rosalía de Castro,7,A Coruña,A Coruña,,15004,Spain,43.3655907,-8.407542
Carretera Fuente Álamo,3,Corvera,Murcia,Región de Murcia,30153,Spain,37.832756,-1.1538753
Carretera Santander,8,Sotopalacios,Burgos,Castilla y León,9140,Spain,42.4332657,-3.681746
Carrer del Rosari,12,Maó,Illes Balears,Illes Balears,7701,Spain,39.8895328,4.2639016
Calle Hernán Cortés,13,Oliva de Mérida,Badajoz,Extremadura,6475,Spain,38.7920803,-6.1252075
Rúa Repicho,25,Porto de Santa Cruz,A Coruña,,15179,Spain,43.3472245,-8.3469039
Plaça Gran,22,Ripoll,Girona,Catalunya,17500,Spain,42.1987233,2.1908648
Aiztogile Kalea,3,Gasteiz,Araba,Euskadi,1001,Spain,42.8478156,-2.670738
Calle Real,92,Vega de Infanzones,León,Castilla y León,24346,Spain,42.4830477,-5.5338378
Calle Templarios,20,Monesterio,Badajoz,Extremadura,6260,Spain,38.0878811,-6.271923
Rúa de Rosalía de Castro,12,Santa Comba,A Coruña,,15840,Spain,43.0349525,-8.8167672
Calle Puente,36,Aguilar de Campoo,Palencia,Castilla y León,34800,Spain,42.7928895,-4.2649383
Calle Francisco Puerta González-Conde,29,Bullas,Murcia,Región de Murcia,30180,Spain,38.047917,-1.667396
Andalucía Plaza,8,Sierra Nevada,Granada,Andalucía,18196,Spain,37.0940394,-3.4010733
Calle de la Purísima,52,Granja de Torrehermosa,Badajoz,Extremadura,6910,Spain,38.3071201,-5.6041825
Calle Marqués de Toca,2,Los Baños de Fortuna,Murcia,Región de Murcia,30620,Spain,38.2082932,-1.111677
Calle Hoz,3,Cazorla,Jaén,Andalucía,23470,Spain,37.9081764,-2.9998951
Plaça d'Anselm Clavé,6,Ripoll,Girona,Catalunya,17500,Spain,42.200386,2.1910464
Estrada de Pontevedra-Ourense,36,Soutelo de Montes,Pontevedra,,36560,Spain,42.5365313,-8.3048618
Carril Tomás,1,Beniaján,Murcia,Región de Murcia,30570,Spain,37.9867478,-1.0763508
Calle Cristóbal Castillo,38,Puente Genil,Córdoba,Andalucía,14500,Spain,37.3880253,-4.7686373
Plaza Simon Arrieta,2,Bergara,Gipuzkoa,Euskadi,20570,Spain,43.1196401,-2.4135834
GR-3201,19,La Peza,Granada,Andalucía,18517,Spain,37.278447,-3.289794
Plaza de España,4,Motilla del Palancar,Cuenca,Castilla-La Mancha,16200,Spain,39.5609023,-1.9102578
Avinguda Universitària,17,Manresa,Barcelona,Catalunya,8243,Spain,41.7385947,1.8219679
Sector Oficios,29,Tres Cantos,Madrid,Comunidad de Madrid,28760,Spain,40.6056189,-3.7151347
Carrer Ferrer Bàrbara,10,Camprodon,Girona,Catalunya,17867,Spain,42.3140735,2.3650995
Ursuaran Diseminado Auzoa,22,Idiazabal,Gipuzkoa,Euskadi,20213,Spain,42.9494259,-2.2276505
Plaça de Fra Bernadí,23,Manlleu,Barcelona,Catalunya,8560,Spain,41.9996759,2.28464
Carretera General Puerto de Santiago,1,Alcalá,Santa Cruz de Tenerife,Canarias,38687,Spain,28.2388003,-16.8343472
Barrio Pekotxeta,11,Pekotxeta,Navarra,Navarra,31669,Spain,43.1103698,-1.2810044
Avenida de Molinaseca,22,Ponferrada,León,Castilla y León,24400,Spain,42.5456263,-6.5809386
AP-2,48,Km,Zaragoza,Aragón,50750,Spain,41.526161,-0.3967808
Rua Enrique Mariñas Romero,36,A Coruña,A Coruña,,15009,Spain,43.3390617,-8.403922
Calle Poeta García Lorca,5,Puente Genil,Córdoba,Andalucía,14500,Spain,37.3917565,-4.7684078
Travesía Progreso,9,Betanzos,La Coruña,,15300,Spain,43.2798064,-8.2095954
Plaça de la Vila,1,Porreres,Illes Balears,Illes Balears,7260,Spain,39.5170312,3.0223744
Calle del Romero,7,Villanueva de la Serena,Badajoz,Extremadura,6700,Spain,38.9675712,-5.7898704
Travesía Alfonso XIII,26,Ferreruela,Zamora,Castilla y León,49550,Spain,41.7661659,-6.0715811
Calle Lisboa,2,Costa Adeje,Santa Cruz de Tenerife,Canarias,38660,Spain,28.087693,-16.728154
Calle Imeldo Serís,25,Santa Cruz de Tenerife,Santa Cruz de Tenerife,Canarias,38003,Spain,28.4658765,-16.2499474
Avinguda Sra. Magdalena Martorell,4,Les Borges del Camp,Tarragona,Cataluña,43350,Spain,41.1752249,1.0187548
Poligono Industrial,24,El Viso,Córdoba,Andalucía,14470,Spain,38.4897253,-4.9572385
Avenida de la Constitución,22,Algodonales,Cádiz,Andalucía,11680,Spain,36.8809588,-5.4060107
Carretera Navalpino,21,Piedrabuena,Ciudad Real,Castilla-La Mancha,13100,Spain,39.0330235,-4.182236
Plaça Jacint Verdaguer,2,La Seu d'Urgell,Lleida,Catalunya,25700,Spain,42.35962,1.45686
C/Justino de Azcárate,1,León,León,Castilla y León,24008,Spain,42.6356345,-5.6011803
Calle Mayor,12,Ocaña,Toledo,Castilla-La Mancha,45300,Spain,39.9588877,-3.4998309
Praza Ravella,10,Vilagarcía de Arousa,Pontevedra,,36600,Spain,42.5960625,-8.7637914
Calle Bodega Salas,1-3,La Palma del Condado,Huelva,Andalucía,21700,Spain,37.3619033,-6.5413446
Calle Mayor Baja,32,Perales de Tajuña,Madrid,Comunidad de Madrid,28540,Spain,40.2337646,-3.3523538
Carretera Guadalupe,3,Logrosán,Cáceres,Extremadura,10120,Spain,39.3334904,-5.4799596
Avda. de la Purísima,65,Catral,Alicante,Comunidad Valenciana,3158,Spain,38.1654972,-0.8032623
Calle Orfeón Fernández Caballero,30,Puerto Lumbreras,Murcia,Región de Murcia,30890,Spain,37.5638691,-1.8047508
Calle Cruz de Orea,51,Cazorla,Jaén,Andalucía,23470,Spain,37.9117133,-3.0046467
Plaza Cervantes,13,Badajoz,Badajoz,Extremadura,6001,Spain,38.8776841,-6.9671141
Carretera de la Sierra,11,Burunchel,Jaén,Andalucía,23479,Spain,37.9454006,-2.9532864
Passeig Romeu,2,Llagostera,Girona,Catalunya,17240,Spain,41.8251156,2.8895544
Carrer Sant Cristòfol,35,La Secuita,Tarragona,Catalunya,43765,Spain,41.2012405,1.2786518
Carretera Vilecha-Tr,21,León,León,Castilla y León,24192,Spain,42.5805336,-5.5728037
Santiso,55,El Pino,La Coruña,,15821,Spain,42.9147,-8.4134658
Calle Colegios,8,Alcalá de Henares,Madrid,Comunidad de Madrid,28804,Spain,40.4813546,-3.361668
Plaça de Pau Casals,6,Sant Sadurní d'Anoia,Barcelona,Catalunya,8770,Spain,41.4247932,1.7818817
Calle Gómez Becerra,2,Cáceres,Cáceres,Extremadura,10001,Spain,39.4698755,-6.3792663
C/ Puntarrón,2,Monachil,Granada,Andalucía,18193,Spain,37.1297464,-3.5313114
Calle San Benito,1,Villanueva de la Serena,Badajoz,Extremadura,6700,Spain,38.9738365,-5.8011603
Avinguda Sant Antoni de Padua,23,Foia d'Elx,Alicante,Comunidad Valenciana,3294,Spain,38.213057,-0.6836257
Carretera el Portal,4,El Portal,Cádiz,Andalucía,11408,Spain,36.6370222,-6.1329578
Ronda de la Comunicación,5,Madrid,Madrid,Comunidad de Madrid,28050,Spain,40.5178019,-3.6669933
Plaza de los Bootello,12,Montijo,Badajoz,Extremadura,6480,Spain,38.907815,-6.6167638
Avenida de Barraña,38,Boiro,A Coruña,,15930,Spain,42.6427653,-8.882651
Calle Nieves,61,Bolaños de Calatrava,Ciudad Real,Castilla-La Mancha,13260,Spain,38.90913,-3.66733
Avenida de la Coronación,6,Villamartin,Cádiz,Andalucía,11650,Spain,36.8620435,-5.6466599
Calle del Seis de Junio,197,Valdepeñas,Ciudad Real,Castilla-La Mancha,13300,Spain,38.754979,-3.3887387
Camino Casas del Monte,8,Villa de Valverde,Santa Cruz de Tenerife,Canarias,38916,Spain,27.8020978,-17.9550787
Avenida de Lugo,58,Taboada,Lugo,,27550,Spain,42.7175132,-7.76331
Calle la Hondura,11,Puerto de Santiago,Santa Cruz de Tenerife,Canarias,38683,Spain,28.23899,-16.84458
Calle Mayor,36,Pozo de Guadalajara,Guadalajara,Castilla-La Mancha,19161,Spain,40.4941922,-3.1824715
Calle Santa Catalina,13,Villafranca del Bierzo,León,Castilla y León,24500,Spain,42.6094491,-6.8104551
Calle del Mar,1,Vera,Almería,Andalucía,4620,Spain,37.2490565,-1.8695788
Carrer Montseny,15,Tavèrnoles,Barcelona,Catalunya,8519,Spain,41.9539022,2.3267989
Rúa de Pablo Iglesias,10,Boiro,A Coruña,,15930,Spain,42.64585,-8.8863513
N-521,100,Cáceres,Cáceres,Extremadura,10005,Spain,39.4620126,-6.4325181
Calle la Bolera,64,Urrez,Burgos,Castilla y León,9199,Spain,42.2701278,-3.402007
Calle Príncipe de Asturias,3,Guillena,Sevilla,Andalucía,41210,Spain,37.5388449,-6.0532851
Avenida Pablo Iglesias,50,Pruna,Sevilla,Andalucía,41670,Spain,36.9716251,-5.2250653
Calle Augusto Echeverría,28,Mendavia,Navarra,Navarra,31587,Spain,42.4436111,-2.1994444
Avenida Cataluña,57,Calaceite,Teruel,Aragón,44610,Spain,41.0157504,0.1892587
Avenida Coruña,3,Arteixo,La Coruña,,15008,Spain,43.3403239,-8.4453439
Carretera Barcelona,14,Villafranca de Ebro,Zaragoza,Aragón,50174,Spain,41.5764079,-0.6453322
Calle Real,14,Hontanas,Burgos,Castilla y León,9227,Spain,42.3127763,-4.0441205
Carretera de León - Astorga,82,La Virgen del Camino,León,Castilla y León,24198,Spain,42.5806782,-5.6402566
Avenida Castilla,21,Cheste,Valencia,Comunidad Valenciana,46380,Spain,39.4921074,-0.6838931
Avinguda Jaume I,143,Inca,Illes Balears,Illes Balears,7300,Spain,39.7166334,2.9160946
Calle Pintor Guillermo Pérez Villalta,60,Tarifa,Cádiz,Andalucía,11380,Spain,36.018994,-5.613299
Rúa Ricardo Cubeiro,4,Oleiros,A Coruña,,15179,Spain,43.3467442,-8.3474153
Calle Bodega Salas,1-3,La Palma del Condado,Huelva,Andalucía,21700,Spain,37.3619033,-6.5413446
Calle Ernesto Sábato,9,Illescas,Toledo,Castilla-La Mancha,45200,Spain,40.1492481,-3.8342278
Carrer Salvador Espriu,9-11,Anglès,Girona,Catalunya,17160,Spain,41.9531111,2.6382167
Carretera Navalpino,5,Piedrabuena,Ciudad Real,Castilla-La Mancha,13100,Spain,39.0336643,-4.1710907
Avenida de Merelles,33,Orense,Ourense,,32520,Spain,42.4663669,-8.2735949
Calle del Mediodía,3,Torrejón de Velasco,Madrid,Comunidad de Madrid,28990,Spain,40.1873805,-3.7753152
Avenida de Fraga,6,Sariñena,Huesca,Aragón,22200,Spain,41.7926369,-0.1562206
Poligono Industrial,24,El Viso,Córdoba,Andalucía,14470,Spain,38.4897253,-4.9572385
Calle los Limoneros,20,Puerto Lumbreras,Murcia,Región de Murcia,30890,Spain,37.5662577,-1.7963853
Autovía del Sur,69,Dosbarrios,Toledo,Castilla-La Mancha,45311,Spain,39.8902587,-3.4732856
Carrer Primer de Maig,11,Benifallet,Tarragona,Catalunya,43512,Spain,40.9746502,0.5177924
Travesía Progreso,9,Betanzos,La Coruña,,15300,Spain,43.2798064,-8.2095954
Calle Real,76,Villoria de Órbigo,León,Castilla y León,24358,Spain,42.4110665,-5.881276
Calle de las Palomas,49,Fuente Obejuna,Córdoba,Andalucía,14290,Spain,38.262917,-5.4182902
Carretera Burgos Santander,20,Sotopalacios,Burgos,Castilla y León,9140,Spain,42.4338729,-3.6820215
Calle Oturia,34,Yebra de Basa,Huesca,Aragón,22610,Spain,42.4863224,-0.2813019
Paseo de España,30,Jaén,Jaén,Andalucía,23009,Spain,37.7871126,-3.7899408
Barrio Pekotxeta,11,Pekotxeta,Navarra,Navarra,31669,Spain,43.1103698,-1.2810044
Camí des Cementírí,343,Lloret de Vistalegre,Illes Balears,Illes Balears,7518,Spain,39.6148316,2.9664541
Avenida 28 de Febrero,1,Albox,Almería,Andalucía,4800,Spain,37.3800278,-2.1354401
Carrer de Sant Tomàs,11,Lloret de Mar,Girona,Cataluña,17310,Spain,41.6987801,2.8466463
Calle Don Miguel Robledo Carrasco,24,Valverde del Fresno,Cáceres,Extremadura,10890,Spain,40.2159855,-6.8711214
Avenida José Manuel Abascal,2,Vega de Pas,Cantabria,Cantabria,39685,Spain,43.1580231,-3.7835438
Avenida de las Naciones,29,Illescas,Toledo,Castilla-La Mancha,45200,Spain,40.1508942,-3.8244145
Lugar Vilariño,20,Forcarei,Pontevedra,,36556,Spain,42.550935,-8.2839875
Calle Guayadeque,23,Agüimes,Las Palmas,Canarias,35260,Spain,27.9336592,-15.4828142
Calle Real,7,Villaseca de la Sagra,Toledo,Castilla-La Mancha,45260,Spain,39.9595144,-3.8829016
Calle Matias Barrio y Mier,43,Aguilar de Campoo,Palencia,Castilla y León,34800,Spain,42.7934226,-4.2577692
Camino de Garrovillas,5,Santiago del Campo,Cáceres,Extremadura,10191,Spain,39.6507415,-6.3918962
Carrer Ferrer Bàrbara,10,Camprodon,Girona,Catalunya,17867,Spain,42.3140735,2.3650995
Calle de María Cristina,7,Brihuega,Guadalajara,Castilla-La Mancha,19400,Spain,40.7623493,-2.8695792
Avenida Coruña,3,Arteixo,La Coruña,,15008,Spain,43.3403239,-8.4453439
Avinguda de la Vital,10,Gandia,Valencia,Comunidad Valenciana,46701,Spain,38.9691103,-0.1698184
Avenida Extremadura,70,Los Blázquez,Córdoba,Andalucía,14208,Spain,38.4086412,-5.4396174
Avinguda Jaume I,16,Inca,Illes Balears,Illes Balears,7300,Spain,39.7193498,2.9166905
Calzada Martiánez,17,Puerto de la Cruz,Santa Cruz de Tenerife,Canarias,38400,Spain,28.4138658,-16.5421705
Calle Almeria,8,Villaviciosa de Córdoba,Córdoba,Andalucía,14300,Spain,38.0736882,-5.0181567
Calle Cristóbal Castillo,38,Puente Genil,Córdoba,Andalucía,14500,Spain,37.3880253,-4.7686373
San Pedro Kalea,4,Bergara,Gipuzkoa,Euskadi,20570,Spain,43.1166104,-2.4130151
C/Justino de Azcárate,1,León,León,Castilla y León,24008,Spain,42.6356345,-5.6011803
Calle José Ramón Mélida,14,Mérida,Badajoz,Extremadura,6800,Spain,38.9177418,-6.3422037
Calle Camino de Catral,33,Almoradí,Alicante,Comunidad Valenciana,3160,Spain,38.11667,-0.79715
Carretera Zamora,6,Onzonilla,León,Castilla y León,24231,Spain,42.5286598,-5.5837148
Calle Francisco Puerta González-Conde,29,Bullas,Murcia,Región de Murcia,30180,Spain,38.047917,-1.667396
Rúa Cotelma,3,Barbadás,Ourense,,32002,Spain,42.3139951,-7.8846033
Calle San Francisco,29,Alcañices,Zamora,Castilla y León,49500,Spain,41.6997394,-6.3458715
Carrer de les Mateues,1,Caldes de Malavella,Girona,Catalunya,17455,Spain,41.8322222,2.8113889
Urbanitzacio Can Salas,9,Terrassa,Barcelona,Catalunya,8227,Spain,41.591985,2.0431725
Calle Ramón Alfonso,19,La Puebla de Alfindén,Zaragoza,Aragón,50171,Spain,41.6347437,-0.7508441
Calle de Mariano Pola,10,Gijón,Asturias,,33212,Spain,43.541582,-5.6749789
Rúa Fonsillón,59,Ourense,Ourense,,32005,Spain,42.3221092,-7.8730463
Avinguda Catalunya,10,Els Pallaresos,Tarragona,Catalunya,43151,Spain,41.1741526,1.2730061
Rúa Corredoira da Torre,13,Santa Comba,A Coruña,,15841,Spain,43.035964,-8.80958
Calle Romero,1,Córdoba,Córdoba,Andalucía,14003,Spain,37.87972,-4.78131
Carrer Mina de Madró,22,La Pobla de Mafumet,Tarragona,Catalunya,43140,Spain,41.1851532,1.2071755
Carrer Major,1,Calbinyà,Lleida,Catalunya,25798,Spain,42.3780637,1.4671044
Carretera de Rozas de Puerto Real,2,Cadalso de los Vidrios,Madrid,Comunidad de Madrid,28640,Spain,40.3027616,-4.4448333
Calle Escritora Carmen Martín Gaite,4,Hellín,Albacete,Castilla-La Mancha,2400,Spain,38.5098439,-1.6966076
Avenida del Campillo,11,Arroyo Frio,Jaén,Andalucía,23479,Spain,37.9452904,-2.9209701
Calle General Campomanes,18,Villaviciosa,Asturias,,33300,Spain,43.4794194,-5.4336162
Calle Mayor,4,Torrelaguna,Madrid,Comunidad de Madrid,28180,Spain,40.8260617,-3.5381941
Calle del Molino,3,Mendavia,Navarra,Navarra,31587,Spain,42.4449119,-2.200886
Goián,6,Ferreira de Pantón,Lugo,,27430,Spain,42.5236683,-7.622398
Calle Santa María,7,Paredes de Nava,Palencia,Castilla y León,34300,Spain,42.1544952,-4.6918816
Plaza de España,6,Villanueva de la Serena,Badajoz,Extremadura,6700,Spain,38.9741722,-5.8001901
N-6,101,Sanchidrián,Ávila,Castilla y León,5290,Spain,40.8757702,-4.5740037
Calle Valencia,12,Almoradí,Alicante,Comunidad Valenciana,3160,Spain,38.1086944,-0.7968967
Avenida de Santiago,47,Santa Comba,La Coruña,,15840,Spain,43.0314285,-8.8000434
Travesía Zarza la Mayor,0,Ceclavín,Cáceres,Extremadura,10870,Spain,39.8419799,-6.808649
Avenida de Emilio Romero,55,Arévalo,Ávila,Castilla y León,5200,Spain,41.0547805,-4.7118019
Calle Lobo,3,Orgaz,Toledo,Castilla-La Mancha,45450,Spain,39.6488569,-3.8754267
Camino Santo Cristo,4,44100lbarracín,Teruel,Aragón,44126,Spain,40.4089775,-1.4367674
Paseo Anciles,5,Benasque,Huesca,Aragón,22440,Spain,42.6016925,0.5220937
Avinguda de la Carretera d'Igualada,1,Calaf,Barcelona,Catalunya,8280,Spain,41.7287353,1.5134425
Plaça de l'Església,12,L'Espluga de Francolí,Tarragona,Catalunya,43440,Spain,41.3962763,1.1032273
Plaza el Tollo,174,Monreal del Campo,Teruel,Aragón,44300,Spain,40.7746157,-1.3441904
LE-512,18,Villanueva de las Manzanas,León,Castilla y León,24225,Spain,42.4497504,-5.5012385
Calle Resejo,10,Riaño,León,Castilla y León,24900,Spain,42.9764633,-5.0038132
Plaza de la Catedral,8,Almería,Almería,Andalucía,4002,Spain,36.8384083,-2.4668314
Calle Crucera,1,Tronchón,Teruel,Aragón,44141,Spain,40.6215458,-0.3986313
Paseo Ramón y Cajal,3,Jarque,Zaragoza,Aragón,50258,Spain,41.5558533,-1.6744004
Plaza de la Venta,1,Iznájar,Córdoba,Andalucía,14970,Spain,37.2567884,-4.3039547
Estrada de Ourense,15,Soutelo de Montes,Pontevedra,,36560,Spain,42.536752,-8.305439
Carrer Can Xalet,10,Alaró,Illes Balears,Illes Balears,7340,Spain,39.7064841,2.7884964
Carretera de Barcelona,12,Castellterçol,Barcelona,Catalunya,8183,Spain,41.7496544,2.1237881
Caserio los Mocanes,137,Vallehermoso,Santa Cruz de Tenerife,Canarias,38891,Spain,28.1839237,-17.2373543
Carretera Vilecha-Tr,21,León,León,Castilla y León,24192,Spain,42.5805336,-5.5728037
Calle Camino Real,71,La Gineta,Albacete,Castilla-La Mancha,2110,Spain,39.1137413,-1.9966713
C/Única,1,Aineto,Huesca,Aragón,22623,Spain,42.3923326,-0.1942251
Calle Molino,9,Jatiel,Teruel,Aragón,44592,Spain,41.2185972,-0.380812
Calle de Fausto Elhuyar,3,Alcalá de Henares,Madrid,Comunidad de Madrid,28806,Spain,40.481821,-3.394529
Calle Sevilla,19,Badolatosa,Sevilla,Andalucía,41570,Spain,37.3066719,-4.6706209
Carrer de Peralta,2,Renau,Tarragona,Catalunya,43886,Spain,41.2245123,1.3111566
Calle Príncipe de Asturias,3,Guillena,Sevilla,Andalucía,41210,Spain,37.5388449,-6.0532851
Avenida de Andalucia,87,Vélez-Rubio,Almería,Andalucía,4820,Spain,37.6481399,-2.0774395
Rua Trasdeza,35,Silleda,Pontevedra,,36540,Spain,42.6987533,-8.2488489
Passeig del Born,5-7,Palma,Illes Balears,Illes Balears,7012,Spain,39.5690932,2.6461399
Paseo del Carmen,1,Daimiel,Ciudad Real,Castilla-La Mancha,13250,Spain,39.0721219,-3.6077429
Plaza de la Constitución,6,Guisando,Ávila,Castilla y León,5417,Spain,40.2224038,-5.1407401
Avenida da Constitución,71,Boiro,La Coruña,,15930,Spain,42.6449117,-8.8868686
Carrer Doctor Codina,114,La Cellera de Ter,Girona,Catalunya,17165,Spain,41.97384,2.62104
Calle Barbacana Baja,2,Carmona,Sevilla,Andalucía,41410,Spain,37.4715503,-5.6416504
Avenida de Andalucia,87,Vélez-Rubio,Almería,Andalucía,4820,Spain,37.6481399,-2.0774395
Rúa de Celanova,54,Vilar de Santos,Ourense,,32650,Spain,42.0876802,-7.7922819
Estrada Baños de Arteixo,43,A Coruña,A Coruña,,15008,Spain,43.3454114,-8.4292933
Calle Miramar,27,El Paso,Santa Cruz de Tenerife,Canarias,38759,Spain,28.65049,-17.88968
Carretera General Puerto Cruz - Arenas,51,Puerto de la Cruz,Santa Cruz de Tenerife,Canarias,38400,Spain,28.4078297,-16.5492554
Calle Alcalde Fernando Tejero,11,Alcaudete,Jaén,Andalucía,23660,Spain,37.5876514,-4.082737
Mendiondo Auzoa,4,Mendiondo,Bizkaia,Euskadi,48610,Spain,43.3679868,-2.9427673
Carrer Major,5,la Romana,Alicante,Comunidad Valenciana,3669,Spain,38.3679866,-0.8972794
Carrer Mestral,19,Balaguer,Lleida,Catalunya,25600,Spain,41.775309,0.818606
Calle Cristóbal Colón,1,Almoradí,Alicante,Comunidad Valenciana,3160,Spain,38.1130133,-0.7893072
Carretera General Tajuya,2,El Paso,Santa Cruz de Tenerife,Canarias,38750,Spain,28.6337055,-17.8898694
Carretera Cifuentes,64,Saelices de la Sal,Guadalajara,Castilla-La Mancha,19443,Spain,40.906099,-2.3242465
Ursuaran Diseminado Auzoa,22,Idiazabal,Gipuzkoa,Euskadi,20213,Spain,42.9494259,-2.2276505
Plaza Mayor,7,Forcall,Castellón,Comunidad Valenciana,12310,Spain,40.6462171,-0.1992818
Camiño Bastiagueiro Pequeno,20,Oleiros,A Coruña,,15179,Spain,43.3426871,-8.3572295
Rua Trasdeza,14,Silleda,Pontevedra,,36540,Spain,42.6991728,-8.2512074
Carrer Montseny,15,Tavèrnoles,Barcelona,Catalunya,8519,Spain,41.9539022,2.3267989
Calle Santa Agueda,32,Arguineguín,Las Palmas,Canarias,35120,Spain,27.7525102,-15.6719971
Calle Manuel Álvarez Miranda,13,Villaviciosa,Asturias,,33300,Spain,43.4817014,-5.4314675
Calle de San Blas,4,Madrid,Madrid,Comunidad de Madrid,28014,Spain,40.4106783,-3.6947231
Paseo Nuestra Señora de Sonsoles,1,Ávila,Ávila,Castilla y León,5002,Spain,40.6463244,-4.6985492
Carrer Salvador Espriu,9-11,Anglès,Girona,Catalunya,17160,Spain,41.9531111,2.6382167
Avenida de la Constitución,32,Algodonales,Cádiz,Andalucía,11680,Spain,36.88091,-5.40644
Avenida Extremadura,70,Los Blázquez,Córdoba,Andalucía,14208,Spain,38.4086412,-5.4396174
Calle Guayadeque,23,Agüimes,Las Palmas,Canarias,35260,Spain,27.9336592,-15.4828142
Calle la Iglesia,2,Villanueva de la Condesa,Valladolid,Castilla y León,47608,Spain,42.1486334,-5.0944626
La Bien Aparecida,11,Ampuero,Cantabria,Cantabria,39849,Spain,43.3264644,-3.4531231
Avinguda de Catalunya,56,Gironella,Barcelona,Catalunya,8680,Spain,42.0337657,1.8803546
Praza Ravella,10,Vilagarcía de Arousa,Pontevedra,,36600,Spain,42.5960625,-8.7637914
Passeig de Jaume I,22,Salou,Tarragona,Catalunya,43840,Spain,41.0747573,1.1395209
Calle Colegios,8,Alcalá de Henares,Madrid,Comunidad de Madrid,28804,Spain,40.4813546,-3.361668
N-630,8,Aldeanueva del Camino,Cáceres,Extremadura,10740,Spain,40.2651431,-5.9171247
Carretera Guadalupe,3,Logrosán,Cáceres,Extremadura,10120,Spain,39.3334904,-5.4799596
Calle San Martín,3,Briviesca,Burgos,Castilla y León,9240,Spain,42.5511429,-3.3242132
Calle Imeldo Serís,25,Santa Cruz de Tenerife,Santa Cruz de Tenerife,Canarias,38003,Spain,28.4658765,-16.2499474
Calle Baja de la Iglesia,3,Madrid,Madrid,Comunidad de Madrid,28023,Spain,40.4585237,-3.7828747
Calle San Román Orto,23,San Román,A Coruña,,15318,Spain,43.2802131,-8.2758206
Calle Mably,2,Murcia,Murcia,Región de Murcia,30890,Spain,37.5615768,-1.8091169
Avenida de Emilio Romero,55,Arévalo,Ávila,Castilla y León,5200,Spain,41.0547805,-4.7118019
Travesía Motilla,2,Fuensaldaña,Valladolid,Castilla y León,47194,Spain,41.7059402,-4.7649302
Calle Antonio Dominguez Alfonso,6,Playa de la Américas,Santa Cruz de Tenerife,Canarias,38660,Spain,28.057181,-16.731657
Calle Matadero,41,Ponferrada,León,Castilla y León,24415,Spain,42.5407544,-6.6033226
Paseo Central,44,Roquetas de Mar,Almería,Andalucía,4740,Spain,36.7255835,-2.62923
Carretera de la Sierra,11,Burunchel,Jaén,Andalucía,23479,Spain,37.9454006,-2.9532864
Calle Ramirez y Pastor,21,Palenzuela,Palencia,Castilla y León,34257,Spain,42.0948829,-4.1277536
Aiztogile Kalea,3,Gasteiz,Araba,Euskadi,1001,Spain,42.8478156,-2.670738
Calle José Ramón Mélida,14,Mérida,Badajoz,Extremadura,6800,Spain,38.9177418,-6.3422037
Carrer de Tuset,4,Barcelona,Barcelona,Catalunya,8006,Spain,41.3953382,2.1529932
Carrer de la Font F,14,Masmolets,Tarragona,Catalunya,43813,Spain,41.3161582,1.2369313
Avenida Manuel Hermoso Rojas,16,Santa Cruz de Tenerife,Santa Cruz de Tenerife,Canarias,38005,Spain,28.4577474,-16.2579994
Calle Chafira,58,Santa Cruz de Tenerife,Santa Cruz de Tenerife,Canarias,38110,Spain,28.4429138,-16.2892934
Carretera Medellín,34,Torre de Santa María,Cáceres,Extremadura,10186,Spain,39.2604549,-6.1054248
Calle Real,7,La Palma del Condado,Huelva,Andalucía,21700,Spain,37.3881454,-6.5535693
Carril Tomás,1,Beniaján,Murcia,Región de Murcia,30570,Spain,37.9867478,-1.0763508
Carretera de Águilas,53,Lorca,Murcia,Región de Murcia,30800,Spain,37.6564782,-1.6898622
Av de la Constitución,22,Ciutadella de Menorca,Illes Balears,Illes Balears,7760,Spain,40.0027982,3.8411514
Calle Chillida,1,Roquetas de Mar,Almería,Andalucía,4740,Spain,36.818959,-2.5978576
Avenida Cazalegas,1261,Cazalegas,Toledo,Castilla-La Mancha,45683,Spain,40.0131321,-4.6950758
Calle Trapa,11,Sosas de Laciana,León,Castilla y León,24139,Spain,42.9504114,-6.3021143
Calle de María Zambrano,35,Zaragoza,Zaragoza,Aragón,50018,Spain,41.6704391,-0.8900132
Calle Cervantes,17-23,Piornal,Cáceres,Extremadura,10615,Spain,40.1182673,-5.8486214
Calle Paco Segovia,22,Las Navas del Marqués,Ávila,Castilla y León,5230,Spain,40.603268,-4.3336131
Camí Ral,3,Begues,Barcelona,Catalunya,8859,Spain,41.3309938,1.9214127
Praza de España,16,A Coruña,A Coruña,,15001,Spain,43.3728413,-8.3971863
Calle Nieves,61,Bolaños de Calatrava,Ciudad Real,Castilla-La Mancha,13260,Spain,38.90913,-3.66733
Carrer de Dalt Vilanova,1,Menorca,Illes Balears,Illes Balears,7701,Spain,39.8915544,4.259214
Camino Gálvez,6,Murcia,Murcia,Región de Murcia,30570,Spain,37.981783,-1.0914827
Plaza Mayor,7,Chañe,Segovia,Castilla y León,40216,Spain,41.3379745,-4.4291596
Calle del Seis de Junio,197,Valdepeñas,Ciudad Real,Castilla-La Mancha,13300,Spain,38.754979,-3.3887387
Carretera de Plasencia,31,Galisteo,Cáceres,Extremadura,10691,Spain,39.9741219,-6.2655841
Carrer Can Xalet,10,Alaró,Illes Balears,Illes Balears,7340,Spain,39.7064841,2.7884964
C/Única,1,Aineto,Huesca,Aragón,22623,Spain,42.3923326,-0.1942251
Avinguda Sra. Magdalena Martorell,65,Les Borges del Camp,Tarragona,Cataluña,43350,Spain,41.1717094,1.0213134
Aitze Auzoa,531,Zarautz,Gipuzkoa,Euskadi,20800,Spain,43.2760071,-2.1645857
Rúa Lugo,18,Santa Comba,A Coruña,,15840,Spain,43.03226,-8.8116299
Carrer Sant Sebastia,20,La Masó,Tarragona,Catalunya,43143,Spain,41.2333695,1.2210632
Calle Cervantes,5,Zamora,Zamora,Castilla y León,49013,Spain,41.5099285,-5.7403545
Sant Joan de Fabregues,10,Rupit,Barcelona,Catalunya,8569,Spain,42.02472,2.4641621
Plaza de la Merced,20,Málaga,Málaga,Andalucía,29012,Spain,36.7235999,-4.4169933
Calle Mayor Baja,32,Perales de Tajuña,Madrid,Comunidad de Madrid,28540,Spain,40.2337646,-3.3523538
OU-0102,24,Penelas,Ourense,,32112,Spain,42.2558228,-7.7693264
Calle Cortes de Soria,1,Soria,Soria,Castilla y León,42003,Spain,41.7632092,-2.4685905
Calle Glorieta,2,Ohanes,Almería,Andalucía,4459,Spain,37.0391381,-2.7456386
Lugar Paradela,10,O Rosal,Pontevedra,,36760,Spain,41.9263742,-8.8018945
Plaza Calderón de la Barca,50,Zalamea de la Serena,Badajoz,Extremadura,6430,Spain,38.6522961,-5.6591204
Calle Escritora Carmen Martín Gaite,4,Hellín,Albacete,Castilla-La Mancha,2400,Spain,38.5098439,-1.6966076
A-7,526,Crevillente,Alicante,Comunidad Valenciana,3330,Spain,38.234637,-0.7906814
Carrer de Santa Teresa,3,Begur,Girona,Catalunya,17255,Spain,41.9550151,3.2064311
Calle Ernesto Sábato,9,Illescas,Toledo,Castilla-La Mancha,45200,Spain,40.1492481,-3.8342278
Carrer del Pare Bartomeu Salvà,6,El Arenal,Illes Balears,Illes Balears,7600,Spain,39.5169977,2.7465743
Calle del Parador,12,Molina de Aragón,Guadalajara,Castilla-La Mancha,19300,Spain,40.8441758,-1.8927642
Calle de La Carrilona,15,Soto del Barco,Asturias,,33126,Spain,43.5282371,-6.0696953
Calle Matias Barrio y Mier,43,Aguilar de Campoo,Palencia,Castilla y León,34800,Spain,42.7934226,-4.2577692
Calle Ancha,60,Lillo,Toledo,Castilla-La Mancha,45870,Spain,39.7224986,-3.307935
Carrer Mare de Déu de les Neus,6,Sabadell,Barcelona,Catalunya,8202,Spain,41.5505361,2.1077053
Calzada Martiánez,17,Puerto de la Cruz,Santa Cruz de Tenerife,Canarias,38400,Spain,28.4138658,-16.5421705
Rúa San Juan,17,Sobrado do Bispo,Ourense,,32890,Spain,42.2905258,-7.9059889
Rúa Rosalía de Castro,16,Negreira,A Coruña,,15830,Spain,42.912407,-8.7358175
Plaça de l'Església,16,Perafort,Tarragona,Catalunya,43152,Spain,41.1907242,1.2554443
Calle Ronda de la Sangre,22,Cadalso de los Vidrios,Madrid,Comunidad de Madrid,28640,Spain,40.3010559,-4.4390716
Rúa Picavia,2,A Coruña,A Coruña,,15004,Spain,43.3651857,-8.4055485
Calle Zaldívar,21,Villaviciosa,Asturias,,33300,Spain,43.4805429,-5.4328609
Calle Oturia,34,Yebra de Basa,Huesca,Aragón,22610,Spain,42.4863224,-0.2813019
Carrer del Comerç,14,Moià,Barcelona,Catalunya,8180,Spain,41.81172,2.09671
Avenida Libertad,161,Hellín,Albacete,Castilla-La Mancha,2400,Spain,38.5257214,-1.7033073
Plaça Plan Parcial 12,6,Montblanc,Tarragona,Catalunya,43400,Spain,41.3915702,1.1419201
Av. de España,101,Lo Jurado,Murcia,Región de Murcia,30154,Spain,37.804822,-1.130999
Plaza San Roque,9,Cacabelos,León,Castilla y León,24540,Spain,42.599709,-6.72206
Calle Real,7,Villaseca de la Sagra,Toledo,Castilla-La Mancha,45260,Spain,39.9595144,-3.8829016
La Bien Aparecida,11,Ampuero,Cantabria,Cantabria,39849,Spain,43.3264644,-3.4531231
Calle de Eduardo Dato,4,Zaragoza,Zaragoza,Aragón,50005,Spain,41.6457424,-0.8898989
Calle Alcalde Fernando Tejero,11,Alcaudete,Jaén,Andalucía,23660,Spain,37.5876514,-4.082737
Calle Lobo,3,Orgaz,Toledo,Castilla-La Mancha,45450,Spain,39.6488569,-3.8754267
Calle de Mariano Pola,10,Gijón,Asturias,,33212,Spain,43.541582,-5.6749789
Calle Salamanca,5,Sancti-Spíritus,Salamanca,Castilla y León,37470,Spain,40.7055688,-6.4030345
Calle Condes de Montijo,38,Montijo,Badajoz,Extremadura,6480,Spain,38.9086457,-6.6204958
Plaza de la Catedral,1,Huesca,Huesca,Aragón,22002,Spain,42.1406638,-0.408934
Avenida del Moncayo,2,San Sebastián de los Reyes,Madrid,Comunidad de Madrid,28703,Spain,40.5553014,-3.6144786
Calle Luis Morote,56,Las Palmas de Gran Canaria,Las Palmas,Canarias,35007,Spain,28.1413029,-15.4348576
Calle Ramón y Cajal,2,Belmonte,Cuenca,Castilla-La Mancha,16640,Spain,39.5592397,-2.7085724
Calle Pedro Donis,4,Arévalo,Ávila,Castilla y León,5200,Spain,41.0611296,-4.7216593
Calle Virgen de Gracia,2,Belmonte,Cuenca,Castilla-La Mancha,16640,Spain,39.556006,-2.7067533
Calle Glorieta,2,Ohanes,Almería,Andalucía,4459,Spain,37.0391381,-2.7456386
Avenida Marítima,98,El Golfo,Las Palmas,Canarias,35570,Spain,28.9811243,-13.8301473
Calle Almeria,8,Villaviciosa de Córdoba,Córdoba,Andalucía,14300,Spain,38.0736882,-5.0181567
Calle Ancha,6,Cáceres,Cáceres,Extremadura,10003,Spain,39.4725723,-6.3715467
Praza de Compostela,21,Vigo,Pontevedra,,36201,Spain,42.2396951,-8.7214113
Paseo de Extremadura,2,Monesterio,Badajoz,Extremadura,6260,Spain,38.0936472,-6.2760386
Avenida Marín Lázaro,11,Utiel,Valencia,Comunidad Valenciana,46300,Spain,39.5716679,-1.2063532
Carrer del Segre,30,Martinet,Lleida,Catalunya,25724,Spain,42.3599486,1.6973217
Carrer de Santa Llúcia,13,Lloret de Mar,Girona,Catalunya,17310,Spain,41.699308,2.847594
Ibargarai Hiribidea,37,Bergara,Gipuzkoa,Euskadi,20570,Spain,43.1136671,-2.4159189
Aldea Ponte Maceira,3,Ames,A Coruña,,15864,Spain,42.9051616,-8.6943126
Carretera de Montblanc a Artesa,56,Solivella,Tarragona,Cataluña,43412,Spain,41.4554481,1.1786892
Calle Tigaday,14,Tigaday,Santa Cruz de Tenerife,Canarias,38913,Spain,27.7521358,-18.0139438
Lugar Outeiro,17,Meaño,Pontevedra,,36638,Spain,42.4760659,-8.7772344
Calle Maestro Galindo Arjona,9,Riópar,Albacete,Castilla-La Mancha,2450,Spain,38.4994962,-2.4165047
Aldea o Campo da Vila,2,Cambados,Pontevedra,,36635,Spain,42.5277862,-8.7630331
Avenida de la Estación,25,Puente Genil,Córdoba,Andalucía,14500,Spain,37.393395,-4.763206
Calle Nueva,9,Alosno,Huelva,Andalucía,21520,Spain,37.548929,-7.1147446
Carrer Mina de Madró,22,La Pobla de Mafumet,Tarragona,Catalunya,43140,Spain,41.1851532,1.2071755
Calle Condes,3,Cáceres,Cáceres,Extremadura,10003,Spain,39.4732532,-6.3714487
Avinguda de les Fonts,26,Alcossebre,Castelló,Comunidad Valenciana,12579,Spain,40.2545689,0.288503
Plaça de l'Església,12,L'Espluga de Francolí,Tarragona,Catalunya,43440,Spain,41.3962763,1.1032273
Travesía de Babia,32,Villaseca de Laciana,León,Castilla y León,24140,Spain,42.9428698,-6.2472399
Carrer des Pou Florit,63,Porreres,Illes Balears,Illes Balears,7260,Spain,39.5142864,3.025874
Calle Correo,79,San José,Almería,Andalucía,4118,Spain,36.7582796,-2.1094288
Calle Alcalde Fernando Tejero,4,Alcaudete,Jaén,Andalucía,23660,Spain,37.5875082,-4.0812814
Plaça de l'Església,7,L'Espluga de Francolí,Tarragona,Catalunya,43440,Spain,41.3964554,1.1036245
Avenida Cataluña,57,Calaceite,Teruel,Aragón,44610,Spain,41.0157504,0.1892587
Calle Iglesia,5,Brazatortas,Ciudad Real,Castilla-La Mancha,13450,Spain,38.6583585,-4.2922385
Calle Millán Astray,6,Armunia,León,Castilla y León,24009,Spain,42.57321,-5.5874621
N-521,100,Cáceres,Cáceres,Extremadura,10005,Spain,39.4620126,-6.4325181
Paseo Ramón y Cajal,3,Jarque,Zaragoza,Aragón,50258,Spain,41.5558533,-1.6744004
Carretera Valencia,79,Motilla del Palancar,Cuenca,Castilla-La Mancha,16200,Spain,39.5600703,-1.9052528
Avenida Chile,40,Villanueva de la Serena,Badajoz,Extremadura,6700,Spain,38.9719692,-5.79038
Avenida Jerez,42,El Cuervo,Sevilla,Andalucía,41749,Spain,36.852508,-6.0411907
Calle Carretera de Liria,69,Cheste,Valencia,Comunidad Valenciana,46380,Spain,39.4946648,-0.6887883
Plaza Mayor,7,Chañe,Segovia,Castilla y León,40216,Spain,41.3379745,-4.4291596
Calle Cardenal Reig,15,Ocaña,Toledo,Castilla-La Mancha,45300,Spain,39.9620631,-3.4911907
Calle Gonzalez Palencia,35,Gea de Albarracín,Teruel,Aragón,44110,Spain,40.4118866,-1.3476914
Carretera Barcelona,14,Villafranca de Ebro,Zaragoza,Aragón,50174,Spain,41.5764079,-0.6453322
Calle del Seis de Junio,197,Valdepeñas,Ciudad Real,Castilla-La Mancha,13300,Spain,38.754979,-3.3887387
Calle de José María Lacarra de Miguel,23,Zaragoza,Zaragoza,Aragón,50008,Spain,41.6452435,-0.8820982
Rúa Barrio do Campo,19,Silleda,Pontevedra,,36540,Spain,42.696084,-8.242018
Avenida de Andalucia,10,Pruna,Sevilla,Andalucía,41670,Spain,36.97343,-5.22183
Calle Horno,13,Torrecilla del Rebollar,Teruel,Aragón,44222,Spain,40.9099063,-1.0726062
Nueva,4,Huéscar,Granada,Andalucía,18830,Spain,37.8095,-2.5394022
Avda. de la Purísima,65,Catral,Alicante,Comunidad Valenciana,3158,Spain,38.1654972,-0.8032623
Calle Carreteros,67,Mollina,Málaga,Andalucía,29532,Spain,37.1288131,-4.6585416
Calle Hernán Cortés,13,Oliva de Mérida,Badajoz,Extremadura,6475,Spain,38.7920803,-6.1252075
Autovía del Suroeste,85,Santa Olalla,Toledo,Castilla-La Mancha,45530,Spain,40.0222434,-4.4877901
Calle del Parador,12,Molina de Aragón,Guadalajara,Castilla-La Mancha,19300,Spain,40.8441758,-1.8927642
Carrer de Santa Teresa,3,Begur,Girona,Catalunya,17255,Spain,41.9550151,3.2064311
Calle Mayor,11,Almoradí,Alicante,Comunidad Valenciana,3160,Spain,38.1085679,-0.7928026
Avenida Barcelona,11,Torreblanca,Castellón,Comunidad Valenciana,12596,Spain,40.2222006,0.2007848
Avinguda Just Marlés Vilarrodona,53,Lloret de Mar,Girona,Catalunya,17310,Spain,41.7003029,2.8425149
N-630,10,Cáceres,Cáceres,Extremadura,10001,Spain,39.494678,-6.4185771
N-432,6,Azuaga,Badajoz,Extremadura,6920,Spain,38.2597222,-5.7019444
OU-0102,24,Penelas,Ourense,,32112,Spain,42.2558228,-7.7693264
Carrer Pare Claret,3,Fondó dels Frares,Alicante,Comunidad Valenciana,3689,Spain,38.2736244,-0.9269027
Avenida del Ebro,1,El Burgo de Ebro,Zaragoza,Aragón,50730,Spain,41.5600848,-0.720031
Rúa do Outeiro,10,Silleda,Pontevedra,,36540,Spain,42.701252,-8.2453546
Plaza Chica,2,Los Llanos,Santa Cruz de Tenerife,Canarias,38760,Spain,28.6593358,-17.9126793
Carrer Major,14,Albalat dels Tarongers,Valencia,Comunidad Valenciana,46591,Spain,39.7030547,-0.3386037
Calle Libertad,10,Cardiel de los Montes,Toledo,Castilla-La Mancha,45642,Spain,40.0629869,-4.6546546
Avinguda de les Alegries,9-11,Lloret de Mar,Girona,Catalunya,17310,Spain,41.7044031,2.8343369
Carretera Zamora,40,Calzada de Valdunciel,Salamanca,Castilla y León,37797,Spain,41.0868236,-5.6971214
Calle San Rafael,3,Venta del Rayo,Granada,Andalucía,18300,Spain,37.1341667,-4.2138889
Plaza de la Villa,4,Quero,Toledo,Castilla-La Mancha,45790,Spain,39.5096839,-3.2469498
Estrada Baños de Arteixo,43,A Coruña,A Coruña,,15008,Spain,43.3454114,-8.4292933
Calle Sánchez Barbero,9,Salamanca,Salamanca,Castilla y León,37002,Spain,40.9637627,-5.6644029
Calle de San Blas,4,Madrid,Madrid,Comunidad de Madrid,28014,Spain,40.4106783,-3.6947231
Calle Panaderos,32,Granada,Granada,Andalucía,18010,Spain,37.182424,-3.591649
